marker-color,marker-size,marker-symbol,NummerRijksmonument,NaamRijksmonument,AardRijksmonument,CBS categoie,HoofdCategorieMS,GEMEENTE,PROVINCIE,PLAATS,SITUERING,Adres,POSTCODE,KICH_URL,STATUS,lon,lat
#80ff80,small,,45063,,Archeologisch,Archeologie,Archeologie,Winsum,Groningen,Adorp,,,9774 ZA,http://monumentenregister.cultureelerfgoed.nl/php/monument_pdf.php?OBJnr=45063,beschermd,6.530857206251,53.283965934006
,,,45064,,Archeologisch,Archeologie,Archeologie,Winsum,Groningen,Adorp,,,9774 ZA,http://monumentenregister.cultureelerfgoed.nl/php/monument_pdf.php?OBJnr=45064,beschermd,6.525681863981,53.285587669867
,,,45065,,Archeologisch,Archeologie,Archeologie,Winsum,Groningen,Adorp,,,9774 ZA,http://monumentenregister.cultureelerfgoed.nl/php/monument_pdf.php?OBJnr=45065,beschermd,6.540869693785,53.284939541541
,,,45066,,Archeologisch,Archeologie,Archeologie,Winsum,Groningen,Sauwerd,,,9770 AA,http://monumentenregister.cultureelerfgoed.nl/php/monument_pdf.php?OBJnr=45066,beschermd,6.555108048604,53.287452871851
,,,45067,,Archeologisch,Archeologie,Archeologie,Winsum,Groningen,Adorp,,,9774 ZA,http://monumentenregister.cultureelerfgoed.nl/php/monument_pdf.php?OBJnr=45067,beschermd,6.547187056728,53.292912323121
,,,45068,,Archeologisch,Archeologie,Archeologie,Winsum,Groningen,Adorp,,,9774 ZA,http://monumentenregister.cultureelerfgoed.nl/php/monument_pdf.php?OBJnr=45068,beschermd,6.517181590175,53.286809167767
,,,45069,,Archeologisch,Archeologie,Archeologie,Winsum,Groningen,Adorp,,,9774 ZA,http://monumentenregister.cultureelerfgoed.nl/php/monument_pdf.php?OBJnr=45069,beschermd,6.528750134551,53.294436840478
,,,45070,,Archeologisch,Archeologie,Archeologie,Winsum,Groningen,Adorp,,,9774 ZA,http://monumentenregister.cultureelerfgoed.nl/php/monument_pdf.php?OBJnr=45070,beschermd,6.534850189265,53.297658656169
,,,45071,,Archeologisch,Archeologie,Archeologie,Winsum,Groningen,Adorp,,,9774 ZA,http://monumentenregister.cultureelerfgoed.nl/php/monument_pdf.php?OBJnr=45071,beschermd,6.521882955906,53.297934581927
,,,45072,,Archeologisch,Archeologie,Archeologie,Winsum,Groningen,Adorp,,,9774 ZA,http://monumentenregister.cultureelerfgoed.nl/php/monument_pdf.php?OBJnr=45072,beschermd,6.529701684083,53.302048007507
,,,45073,,Archeologisch,Archeologie,Archeologie,Winsum,Groningen,Adorp,,,9774 ZA,http://monumentenregister.cultureelerfgoed.nl/php/monument_pdf.php?OBJnr=45073,beschermd,6.53412195441,53.303551504322
,,,45074,,Archeologisch,Archeologie,Archeologie,Winsum,Groningen,Adorp,,,9774 ZA,http://monumentenregister.cultureelerfgoed.nl/php/monument_pdf.php?OBJnr=45074,beschermd,6.537362052726,53.30691727564
,,,45087,,Archeologisch,Archeologie,Archeologie,Groningen,Groningen,Groningen,Bij,Beijumerweg 19,9737 AB,http://monumentenregister.cultureelerfgoed.nl/php/monument_pdf.php?OBJnr=45087,beschermd,6.592192280131,53.250377656529
,,,45088,,Archeologisch,Archeologie,Archeologie,Bedum,Groningen,Zuidwolde,,,9785 ZA,http://monumentenregister.cultureelerfgoed.nl/php/monument_pdf.php?OBJnr=45088,beschermd,6.571893628573,53.26415795512
,,,45089,,Archeologisch,Archeologie,Archeologie,Bedum,Groningen,Zuidwolde,,,9785 ZA,http://monumentenregister.cultureelerfgoed.nl/php/monument_pdf.php?OBJnr=45089,beschermd,6.572608244336,53.266711986822
,,,45090,,Archeologisch,Archeologie,Archeologie,Bedum,Groningen,Noordwolde,,,9780 AA,http://monumentenregister.cultureelerfgoed.nl/php/monument_pdf.php?OBJnr=45090,beschermd,6.561851208836,53.281761771274
,,,45011,,Archeologisch,Archeologie,Archeologie,Aa en Hunze,Drenthe,Annen,,,9468 ZA,http://monumentenregister.cultureelerfgoed.nl/php/monument_pdf.php?OBJnr=45011,beschermd,6.715555274687,53.061431627356
,,,45012,,Archeologisch,Archeologie,Archeologie,Aa en Hunze,Drenthe,Annen,,,9468 ZA,http://monumentenregister.cultureelerfgoed.nl/php/monument_pdf.php?OBJnr=45012,beschermd,6.712771781836,53.042571636982
,,,45013,,Archeologisch,Archeologie,Archeologie,Aa en Hunze,Drenthe,Anloo,,,9463 ZA,http://monumentenregister.cultureelerfgoed.nl/php/monument_pdf.php?OBJnr=45013,beschermd,6.708350037112,53.037408023712
,,,45014,,Archeologisch,Archeologie,Archeologie,Aa en Hunze,Drenthe,Gasteren,,,9466 ZA,http://monumentenregister.cultureelerfgoed.nl/php/monument_pdf.php?OBJnr=45014,beschermd,6.659197823356,53.046775004934
,,,45015,,Archeologisch,Archeologie,Archeologie,Aa en Hunze,Drenthe,Gasteren,,,9466 ZA,http://monumentenregister.cultureelerfgoed.nl/php/monument_pdf.php?OBJnr=45015,beschermd,6.658757495323,53.042429967711
,,,45016,,Archeologisch,Archeologie,Archeologie,Aa en Hunze,Drenthe,Gasteren,,,9466 ZA,http://monumentenregister.cultureelerfgoed.nl/php/monument_pdf.php?OBJnr=45016,beschermd,6.675590360439,53.032292206213
,,,45017,,Archeologisch,Archeologie,Archeologie,Aa en Hunze,Drenthe,Anloo,,,9463 ZA,http://monumentenregister.cultureelerfgoed.nl/php/monument_pdf.php?OBJnr=45017,beschermd,6.708056271487,53.030194604498
,,,45018,,Archeologisch,Archeologie,Archeologie,Aa en Hunze,Drenthe,Anloo,,,9463 ZA,http://monumentenregister.cultureelerfgoed.nl/php/monument_pdf.php?OBJnr=45018,beschermd,6.710205925415,53.028822775571
,,,45019,,Archeologisch,Archeologie,Archeologie,Aa en Hunze,Drenthe,Anloo,,,9463 ZA,http://monumentenregister.cultureelerfgoed.nl/php/monument_pdf.php?OBJnr=45019,beschermd,6.719324753383,53.033547664981
,,,45020,,Archeologisch,Archeologie,Archeologie,Aa en Hunze,Drenthe,Anloo,,,9463 ZA,http://monumentenregister.cultureelerfgoed.nl/php/monument_pdf.php?OBJnr=45020,beschermd,6.726367241238,53.030341496988
,,,45021,,Archeologisch,Archeologie,Archeologie,Aa en Hunze,Drenthe,Eext,,,9463 ZA,http://monumentenregister.cultureelerfgoed.nl/php/monument_pdf.php?OBJnr=45021,beschermd,6.729848701876,53.029152109957
,,,45022,,Archeologisch,Archeologie,Archeologie,Aa en Hunze,Drenthe,Eext,,,9463 ZA,http://monumentenregister.cultureelerfgoed.nl/php/monument_pdf.php?OBJnr=45022,beschermd,6.705661853457,53.014160976583
,,,45023,,Archeologisch,Archeologie,Archeologie,Aa en Hunze,Drenthe,Eext,,,9463 ZA,http://monumentenregister.cultureelerfgoed.nl/php/monument_pdf.php?OBJnr=45023,beschermd,6.72015284591,53.016795342393
,,,45024,,Archeologisch,Archeologie,Archeologie,Aa en Hunze,Drenthe,Eext,,,9463 ZA,http://monumentenregister.cultureelerfgoed.nl/php/monument_pdf.php?OBJnr=45024,beschermd,6.719262788937,53.017416388976
,,,45025,,Archeologisch,Archeologie,Archeologie,Aa en Hunze,Drenthe,Eext,,,9463 ZA,http://monumentenregister.cultureelerfgoed.nl/php/monument_pdf.php?OBJnr=45025,beschermd,6.723666770222,53.01523728614
,,,45026,,Archeologisch,Archeologie,Archeologie,Aa en Hunze,Drenthe,Eext,,,9463 ZA,http://monumentenregister.cultureelerfgoed.nl/php/monument_pdf.php?OBJnr=45026,beschermd,6.726990697375,53.011389513064
,,,45027,,Archeologisch,Archeologie,Archeologie,Emmen,Drenthe,Emmen,,,7800 AA,http://monumentenregister.cultureelerfgoed.nl/php/monument_pdf.php?OBJnr=45027,beschermd,6.88950626715,52.811107253816
,,,45028,,Archeologisch,Archeologie,Archeologie,Aa en Hunze,Drenthe,Eext,,,9463 ZA,http://monumentenregister.cultureelerfgoed.nl/php/monument_pdf.php?OBJnr=45028,beschermd,6.763587722427,53.01797493764
,,,45029,,Archeologisch,Archeologie,Archeologie,Aa en Hunze,Drenthe,Eext,,,9463 ZA,http://monumentenregister.cultureelerfgoed.nl/php/monument_pdf.php?OBJnr=45029,beschermd,6.72985080504,53.001705141488
,,,45030,,Archeologisch,Archeologie,Archeologie,Aa en Hunze,Drenthe,Eext,,,9463 ZA,http://monumentenregister.cultureelerfgoed.nl/php/monument_pdf.php?OBJnr=45030,beschermd,6.714587980863,52.996087797342
,,,45031,,Archeologisch,Archeologie,Archeologie,Aa en Hunze,Drenthe,Eext,,,9463 ZA,http://monumentenregister.cultureelerfgoed.nl/php/monument_pdf.php?OBJnr=45031,beschermd,6.705249379202,52.986287191604
,,,45032,,Archeologisch,Archeologie,Archeologie,Aa en Hunze,Drenthe,Anloo,,,9463 ZA,http://monumentenregister.cultureelerfgoed.nl/php/monument_pdf.php?OBJnr=45032,beschermd,6.650774140349,53.051465605329
,,,45033,,Archeologisch,Archeologie,Archeologie,Aa en Hunze,Drenthe,Eext,,,9463 ZA,http://monumentenregister.cultureelerfgoed.nl/php/monument_pdf.php?OBJnr=45033,beschermd,6.746022539579,53.03247446787
,,,45038,,Archeologisch,Archeologie,Archeologie,Zuidhorn,Groningen,Den Horn,,,9800 AA,http://monumentenregister.cultureelerfgoed.nl/php/monument_pdf.php?OBJnr=45038,beschermd,6.439970006641,53.232129347909
,,,45039,,Archeologisch,Archeologie,Archeologie,Zuidhorn,Groningen,Aduard,,,9830 AA,http://monumentenregister.cultureelerfgoed.nl/php/monument_pdf.php?OBJnr=45039,beschermd,6.448962425946,53.24397477992
,,,45040,,Archeologisch,Archeologie,Archeologie,Zuidhorn,Groningen,Aduard,,,9830 AA,http://monumentenregister.cultureelerfgoed.nl/php/monument_pdf.php?OBJnr=45040,beschermd,6.454939887069,53.247012998215
,,,45041,,Archeologisch,Archeologie,Archeologie,Zuidhorn,Groningen,Den Ham,,,9800 AA,http://monumentenregister.cultureelerfgoed.nl/php/monument_pdf.php?OBJnr=45041,beschermd,6.430597477407,53.268209556811
,,,45042,,Archeologisch,Archeologie,Archeologie,Zuidhorn,Groningen,Den Ham,,,9800 AA,http://monumentenregister.cultureelerfgoed.nl/php/monument_pdf.php?OBJnr=45042,beschermd,6.427629591755,53.26882838606
,,,45043,,Archeologisch,Archeologie,Archeologie,Zuidhorn,Groningen,Den Ham,,,9800 AA,http://monumentenregister.cultureelerfgoed.nl/php/monument_pdf.php?OBJnr=45043,beschermd,6.425634212584,53.267506735284
,,,45044,,Archeologisch,Archeologie,Archeologie,Zuidhorn,Groningen,Aduard,,,9830 AA,http://monumentenregister.cultureelerfgoed.nl/php/monument_pdf.php?OBJnr=45044,beschermd,6.498381563227,53.261365087227
,,,45045,,Archeologisch,Archeologie,Archeologie,Zuidhorn,Groningen,Den Ham,,,9800 AA,http://monumentenregister.cultureelerfgoed.nl/php/monument_pdf.php?OBJnr=45045,beschermd,6.417700984128,53.275491766892
,,,45046,,Archeologisch,Archeologie,Archeologie,Zuidhorn,Groningen,Fransum,,,9800 AA,http://monumentenregister.cultureelerfgoed.nl/php/monument_pdf.php?OBJnr=45046,beschermd,6.466825441805,53.269390003772
,,,45047,,Archeologisch,Archeologie,Archeologie,Zuidhorn,Groningen,Fransum,,,9800 AA,http://monumentenregister.cultureelerfgoed.nl/php/monument_pdf.php?OBJnr=45047,beschermd,6.447814800285,53.278374731266
,,,45048,,Archeologisch,Archeologie,Archeologie,Winsum,Groningen,Oostum,,,9770 AA,http://monumentenregister.cultureelerfgoed.nl/php/monument_pdf.php?OBJnr=45048,beschermd,6.495849801338,53.268406675252
,,,45050,,Archeologisch,Archeologie,Archeologie,Winsum,Groningen,Adorp,,,9774 ZA,http://monumentenregister.cultureelerfgoed.nl/php/monument_pdf.php?OBJnr=45050,beschermd,6.527506623404,53.250802803783
,,,45051,,Archeologisch,Archeologie,Archeologie,Winsum,Groningen,Adorp,,,9774 ZA,http://monumentenregister.cultureelerfgoed.nl/php/monument_pdf.php?OBJnr=45051,beschermd,6.520996346835,53.258502749436
,,,45052,,Archeologisch,Archeologie,Archeologie,Winsum,Groningen,Adorp,,,9774 ZA,http://monumentenregister.cultureelerfgoed.nl/php/monument_pdf.php?OBJnr=45052,beschermd,6.543820360688,53.254609682067
,,,45053,,Archeologisch,Archeologie,Archeologie,Winsum,Groningen,Adorp,,,9774 ZA,http://monumentenregister.cultureelerfgoed.nl/php/monument_pdf.php?OBJnr=45053,beschermd,6.547212771789,53.253714272466
,,,45055,,Archeologisch,Archeologie,Archeologie,Winsum,Groningen,Adorp,,,9774 ZA,http://monumentenregister.cultureelerfgoed.nl/php/monument_pdf.php?OBJnr=45055,beschermd,6.534239524787,53.263418234548
,,,45057,,Archeologisch,Archeologie,Archeologie,Winsum,Groningen,Adorp,,,9774 ZA,http://monumentenregister.cultureelerfgoed.nl/php/monument_pdf.php?OBJnr=45057,beschermd,6.531212396683,53.265693663355
,,,45059,,Archeologisch,Archeologie,Archeologie,Winsum,Groningen,Adorp,,,9774 ZA,http://monumentenregister.cultureelerfgoed.nl/php/monument_pdf.php?OBJnr=45059,beschermd,6.510595130943,53.268251670813
,,,45060,,Archeologisch,Archeologie,Archeologie,Winsum,Groningen,Adorp,,,9774 ZA,http://monumentenregister.cultureelerfgoed.nl/php/monument_pdf.php?OBJnr=45060,beschermd,6.533064097543,53.276162888314
,,,45061,,Archeologisch,Archeologie,Archeologie,Winsum,Groningen,Adorp,,,9774 ZA,http://monumentenregister.cultureelerfgoed.nl/php/monument_pdf.php?OBJnr=45061,beschermd,6.532901453083,53.277377572715
,,,45062,,Archeologisch,Archeologie,Archeologie,Winsum,Groningen,Adorp,,,9774 ZA,http://monumentenregister.cultureelerfgoed.nl/php/monument_pdf.php?OBJnr=45062,beschermd,6.526500236784,53.27910090179
,,,45091,,Archeologisch,Archeologie,Archeologie,Bedum,Groningen,Ellerhuizen,,,9780 AA,http://monumentenregister.cultureelerfgoed.nl/php/monument_pdf.php?OBJnr=45091,beschermd,6.603748340829,53.277112207638
,,,45092,,Archeologisch,Archeologie,Archeologie,Bedum,Groningen,Bedum,,,9780 AA,http://monumentenregister.cultureelerfgoed.nl/php/monument_pdf.php?OBJnr=45092,beschermd,6.629291475165,53.313424823246
,,,45093,,Archeologisch,Archeologie,Archeologie,Bedum,Groningen,Bedum,,,9780 AA,http://monumentenregister.cultureelerfgoed.nl/php/monument_pdf.php?OBJnr=45093,beschermd,6.599573991065,53.301426217571
,,,45094,,Archeologisch,Archeologie,Archeologie,Bedum,Groningen,Onderwierum,,,9780 AA,http://monumentenregister.cultureelerfgoed.nl/php/monument_pdf.php?OBJnr=45094,beschermd,6.580576449103,53.32395591485
,,,45095,,Archeologisch,Archeologie,Archeologie,Bedum,Groningen,Onderwierum,,,9780 AA,http://monumentenregister.cultureelerfgoed.nl/php/monument_pdf.php?OBJnr=45095,beschermd,6.581081845094,53.325945808374
,,,45096,,Archeologisch,Archeologie,Archeologie,Bedum,Groningen,Onderwierum,,,9780 AA,http://monumentenregister.cultureelerfgoed.nl/php/monument_pdf.php?OBJnr=45096,beschermd,6.580564968985,53.327334798003
,,,45097,,Archeologisch,Archeologie,Archeologie,Bedum,Groningen,Onderdendam,,,9959 ZA,http://monumentenregister.cultureelerfgoed.nl/php/monument_pdf.php?OBJnr=45097,beschermd,6.5809708416,53.333315493561
,,,45098,,Archeologisch,Archeologie,Archeologie,Bedum,Groningen,Onderdendam,,,9959 ZA,http://monumentenregister.cultureelerfgoed.nl/php/monument_pdf.php?OBJnr=45098,beschermd,6.58399623057,53.340627023396
,,,45137,,Archeologisch,Archeologie,Archeologie,Appingedam,Groningen,Tjamsweer,,,9900 AA,http://monumentenregister.cultureelerfgoed.nl/php/monument_pdf.php?OBJnr=45137,beschermd,6.83562207411,53.323426691067
,,,45287,,Archeologisch,Archeologie,Archeologie,Het Bildt,Friesland,Minnertsga,,,9047 ZA,http://monumentenregister.cultureelerfgoed.nl/php/monument_pdf.php?OBJnr=45287,beschermd,5.578792231221,53.246774477303
,,,45138,,Archeologisch,Archeologie,Archeologie,Appingedam,Groningen,Tjamsweer,,,9900 AA,http://monumentenregister.cultureelerfgoed.nl/php/monument_pdf.php?OBJnr=45138,beschermd,6.83343727303,53.323174417214
,,,45139,,Archeologisch,Archeologie,Archeologie,Appingedam,Groningen,Tjamsweer,,,9900 AA,http://monumentenregister.cultureelerfgoed.nl/php/monument_pdf.php?OBJnr=45139,beschermd,6.82949844439,53.324327084947
,,,45140,,Archeologisch,Archeologie,Archeologie,Appingedam,Groningen,Tjamsweer,,,9900 AA,http://monumentenregister.cultureelerfgoed.nl/php/monument_pdf.php?OBJnr=45140,beschermd,6.83114635797,53.326473045466
,,,45141,,Archeologisch,Archeologie,Archeologie,Appingedam,Groningen,Tjamsweer,,,9900 AA,http://monumentenregister.cultureelerfgoed.nl/php/monument_pdf.php?OBJnr=45141,beschermd,6.836230260409,53.327229638913
,,,45142,,Archeologisch,Archeologie,Archeologie,Appingedam,Groningen,Appingedam,,,9900 AA,http://monumentenregister.cultureelerfgoed.nl/php/monument_pdf.php?OBJnr=45142,beschermd,6.854184785608,53.323758734656
,,,45143,,Archeologisch,Archeologie,Archeologie,Appingedam,Groningen,Oling,,,9900 AA,http://monumentenregister.cultureelerfgoed.nl/php/monument_pdf.php?OBJnr=45143,beschermd,6.835346894893,53.313005637091
,,,45144,,Archeologisch,Archeologie,Archeologie,Appingedam,Groningen,Appingedam,,,9900 AA,http://monumentenregister.cultureelerfgoed.nl/php/monument_pdf.php?OBJnr=45144,beschermd,6.834386206549,53.315677224327
,,,45145,,Archeologisch,Archeologie,Archeologie,Appingedam,Groningen,Appingedam,,,9900 AA,http://monumentenregister.cultureelerfgoed.nl/php/monument_pdf.php?OBJnr=45145,beschermd,6.843626520982,53.314235590532
,,,45146,,Archeologisch,Archeologie,Archeologie,Appingedam,Groningen,Appingedam,,,9900 AA,http://monumentenregister.cultureelerfgoed.nl/php/monument_pdf.php?OBJnr=45146,beschermd,6.843481889358,53.312619763353
,,,45147,,Archeologisch,Archeologie,Archeologie,Appingedam,Groningen,Appingedam,,,9900 AA,http://monumentenregister.cultureelerfgoed.nl/php/monument_pdf.php?OBJnr=45147,beschermd,6.860465711798,53.310354823146
,,,45148,,Archeologisch,Archeologie,Archeologie,Appingedam,Groningen,Appingedam,,,9900 AA,http://monumentenregister.cultureelerfgoed.nl/php/monument_pdf.php?OBJnr=45148,beschermd,6.874518203081,53.319285152988
,,,45149,,Archeologisch,Archeologie,Archeologie,Appingedam,Groningen,Laskwerd,,,9900 AA,http://monumentenregister.cultureelerfgoed.nl/php/monument_pdf.php?OBJnr=45149,beschermd,6.843902972875,53.293554108701
,,,45150,,Archeologisch,Archeologie,Archeologie,Appingedam,Groningen,Jukwerd,,,9900 AA,http://monumentenregister.cultureelerfgoed.nl/php/monument_pdf.php?OBJnr=45150,beschermd,6.845836105971,53.335183340633
,,,45151,,Archeologisch,Archeologie,Archeologie,Appingedam,Groningen,Garreweer,,,9900 AA,http://monumentenregister.cultureelerfgoed.nl/php/monument_pdf.php?OBJnr=45151,beschermd,6.810751449865,53.311601050985
,,,45152,,Archeologisch,Archeologie,Archeologie,Appingedam,Groningen,Garreweer,,,9900 AA,http://monumentenregister.cultureelerfgoed.nl/php/monument_pdf.php?OBJnr=45152,beschermd,6.814486358483,53.31110742447
,,,45153,,Archeologisch,Archeologie,Archeologie,Appingedam,Groningen,Jukwerd,,,9900 AA,http://monumentenregister.cultureelerfgoed.nl/php/monument_pdf.php?OBJnr=45153,beschermd,6.848378864677,53.334460502124
,,,45154,,Archeologisch,Archeologie,Archeologie,Appingedam,Groningen,Marsum,,,9900 AA,http://monumentenregister.cultureelerfgoed.nl/php/monument_pdf.php?OBJnr=45154,beschermd,6.873256631394,53.341452620577
,,,45155,,Archeologisch,Archeologie,Archeologie,Appingedam,Groningen,Oling,,,9900 AA,http://monumentenregister.cultureelerfgoed.nl/php/monument_pdf.php?OBJnr=45155,beschermd,6.835387521577,53.31510799751
,,,45156,,Archeologisch,Archeologie,Archeologie,Appingedam,Groningen,Oling,,,9900 AA,http://monumentenregister.cultureelerfgoed.nl/php/monument_pdf.php?OBJnr=45156,beschermd,6.83155162094,53.314830644326
,,,45157,,Archeologisch,Archeologie,Archeologie,Appingedam,Groningen,Marsum,,,9900 AA,http://monumentenregister.cultureelerfgoed.nl/php/monument_pdf.php?OBJnr=45157,beschermd,6.876028565451,53.339108789451
,,,45213,,Archeologisch,Archeologie,Archeologie,Franekeradeel,Friesland,Sexbierum,,,8855 ZA,http://monumentenregister.cultureelerfgoed.nl/php/monument_pdf.php?OBJnr=45213,beschermd,5.496594935881,53.199640677923
,,,45214,,Archeologisch,Archeologie,Archeologie,Franekeradeel,Friesland,Sexbierum,,,8855 ZA,http://monumentenregister.cultureelerfgoed.nl/php/monument_pdf.php?OBJnr=45214,beschermd,5.499380024437,53.200321008032
,,,45215,,Archeologisch,Archeologie,Archeologie,Harlingen,Friesland,Wijnaldum,,,8860 AA,http://monumentenregister.cultureelerfgoed.nl/php/monument_pdf.php?OBJnr=45215,beschermd,5.484289989791,53.197656479283
,,,45216,,Archeologisch,Archeologie,Archeologie,Harlingen,Friesland,Wijnaldum,,,8860 AA,http://monumentenregister.cultureelerfgoed.nl/php/monument_pdf.php?OBJnr=45216,beschermd,5.478767187516,53.197040822142
,,,45217,,Archeologisch,Archeologie,Archeologie,Harlingen,Friesland,Wijnaldum,,,8860 AA,http://monumentenregister.cultureelerfgoed.nl/php/monument_pdf.php?OBJnr=45217,beschermd,5.472840845372,53.196577955309
,,,45219,,Archeologisch,Archeologie,Archeologie,Franekeradeel,Friesland,Oosterbierum,,,8854 ZA,http://monumentenregister.cultureelerfgoed.nl/php/monument_pdf.php?OBJnr=45219,beschermd,5.517610842779,53.236433439187
,,,45220,,Archeologisch,Archeologie,Archeologie,Franekeradeel,Friesland,Oosterbierum,,,8854 ZA,http://monumentenregister.cultureelerfgoed.nl/php/monument_pdf.php?OBJnr=45220,beschermd,5.512650677373,53.235459312529
,,,45221,,Archeologisch,Archeologie,Archeologie,Franekeradeel,Friesland,Oosterbierum,,,8854 ZA,http://monumentenregister.cultureelerfgoed.nl/php/monument_pdf.php?OBJnr=45221,beschermd,5.507584975254,53.234152623358
,,,45222,,Archeologisch,Archeologie,Archeologie,Franekeradeel,Friesland,Tzummarum,,,8850 AA,http://monumentenregister.cultureelerfgoed.nl/php/monument_pdf.php?OBJnr=45222,beschermd,5.555993068354,53.239386714727
,,,45223,,Archeologisch,Archeologie,Archeologie,Franekeradeel,Friesland,Tzummarum,,,8800 AA,http://monumentenregister.cultureelerfgoed.nl/php/monument_pdf.php?OBJnr=45223,beschermd,5.560675888133,53.241806115627
,,,45224,,Archeologisch,Archeologie,Archeologie,Franekeradeel,Friesland,Tzummarum,,,8850 AA,http://monumentenregister.cultureelerfgoed.nl/php/monument_pdf.php?OBJnr=45224,beschermd,5.530992306209,53.234081909844
,,,45225,,Archeologisch,Archeologie,Archeologie,Franekeradeel,Friesland,Tzummarum,,,8850 AA,http://monumentenregister.cultureelerfgoed.nl/php/monument_pdf.php?OBJnr=45225,beschermd,5.538122499352,53.234540394373
,,,45226,,Archeologisch,Archeologie,Archeologie,Franekeradeel,Friesland,Tzummarum,,,8850 AA,http://monumentenregister.cultureelerfgoed.nl/php/monument_pdf.php?OBJnr=45226,beschermd,5.546479754692,53.242805224114
,,,45227,,Archeologisch,Archeologie,Archeologie,Franekeradeel,Friesland,Tzummarum,,,8850 AA,http://monumentenregister.cultureelerfgoed.nl/php/monument_pdf.php?OBJnr=45227,beschermd,5.545493942801,53.243570294817
,,,45228,,Archeologisch,Archeologie,Archeologie,Het Bildt,Friesland,Minnertsga,,,9047 ZA,http://monumentenregister.cultureelerfgoed.nl/php/monument_pdf.php?OBJnr=45228,beschermd,5.570214887752,53.251828714472
,,,45229,,Archeologisch,Archeologie,Archeologie,Franekeradeel,Friesland,Firdgum,,,8800 AA,http://monumentenregister.cultureelerfgoed.nl/php/monument_pdf.php?OBJnr=45229,beschermd,5.561259953062,53.249209300635
,,,45230,,Archeologisch,Archeologie,Archeologie,Franekeradeel,Friesland,Firdgum,,,8800 AA,http://monumentenregister.cultureelerfgoed.nl/php/monument_pdf.php?OBJnr=45230,beschermd,5.555409895748,53.247321712693
,,,45231,,Archeologisch,Archeologie,Archeologie,Franekeradeel,Friesland,Firdgum,,,8800 AA,http://monumentenregister.cultureelerfgoed.nl/php/monument_pdf.php?OBJnr=45231,beschermd,5.552066831105,53.246697371027
,,,45232,,Archeologisch,Archeologie,Archeologie,Franekeradeel,Friesland,Firdgum,,,8800 AA,http://monumentenregister.cultureelerfgoed.nl/php/monument_pdf.php?OBJnr=45232,beschermd,5.549490957433,53.246898563913
,,,45233,,Archeologisch,Archeologie,Archeologie,Het Bildt,Friesland,Minnertsga,,,9047 ZA,http://monumentenregister.cultureelerfgoed.nl/php/monument_pdf.php?OBJnr=45233,beschermd,5.602447878552,53.253087098459
,,,45234,,Archeologisch,Archeologie,Archeologie,Het Bildt,Friesland,Minnertsga,,,9047 ZA,http://monumentenregister.cultureelerfgoed.nl/php/monument_pdf.php?OBJnr=45234,beschermd,5.601335427912,53.252334309931
,,,45235,,Archeologisch,Archeologie,Archeologie,Het Bildt,Friesland,Minnertsga,,,9047 ZA,http://monumentenregister.cultureelerfgoed.nl/php/monument_pdf.php?OBJnr=45235,beschermd,5.578905449358,53.245282707258
,,,45236,,Archeologisch,Archeologie,Archeologie,Het Bildt,Friesland,Minnertsga,,,9047 ZA,http://monumentenregister.cultureelerfgoed.nl/php/monument_pdf.php?OBJnr=45236,beschermd,5.616623989746,53.242287240313
,,,45237,,Archeologisch,Archeologie,Archeologie,Het Bildt,Friesland,Minnertsga,,,9047 ZA,http://monumentenregister.cultureelerfgoed.nl/php/monument_pdf.php?OBJnr=45237,beschermd,5.617022724442,53.241217202735
,,,45238,,Archeologisch,Archeologie,Archeologie,Franekeradeel,Friesland,Sexbierum,,,8855 ZA,http://monumentenregister.cultureelerfgoed.nl/php/monument_pdf.php?OBJnr=45238,beschermd,5.489845126483,53.230700722109
,,,45239,,Archeologisch,Archeologie,Archeologie,Franekeradeel,Friesland,Tzummarum,,,8850 AA,http://monumentenregister.cultureelerfgoed.nl/php/monument_pdf.php?OBJnr=45239,beschermd,5.533129615065,53.250540724873
,,,45240,,Archeologisch,Archeologie,Archeologie,Franekeradeel,Friesland,Oosterbierum,,,8854 ZA,http://monumentenregister.cultureelerfgoed.nl/php/monument_pdf.php?OBJnr=45240,beschermd,5.522615105646,53.246617425677
,,,45241,,Archeologisch,Archeologie,Archeologie,Het Bildt,Friesland,Minnertsga,,,9047 ZA,http://monumentenregister.cultureelerfgoed.nl/php/monument_pdf.php?OBJnr=45241,beschermd,5.577936641743,53.259948517243
,,,45242,,Archeologisch,Archeologie,Archeologie,Franekeradeel,Friesland,Sexbierum,,,8855 ZA,http://monumentenregister.cultureelerfgoed.nl/php/monument_pdf.php?OBJnr=45242,beschermd,5.479967447171,53.226395729264
,,,45243,,Archeologisch,Archeologie,Archeologie,Franekeradeel,Friesland,Firdgum,,,8800 AA,http://monumentenregister.cultureelerfgoed.nl/php/monument_pdf.php?OBJnr=45243,beschermd,5.562487024227,53.248866066395
,,,45246,,Archeologisch,Archeologie,Archeologie,Franekeradeel,Friesland,Sexbierum,,,8855 ZA,http://monumentenregister.cultureelerfgoed.nl/php/monument_pdf.php?OBJnr=45246,beschermd,5.487458370326,53.208885853953
,,,45247,,Archeologisch,Archeologie,Archeologie,Het Bildt,Friesland,Minnertsga,,,9047 ZA,http://monumentenregister.cultureelerfgoed.nl/php/monument_pdf.php?OBJnr=45247,beschermd,5.585940194875,53.260285961167
,,,45248,,Archeologisch,Archeologie,Archeologie,Franekeradeel,Friesland,Oosterbierum,,,8855 ZA,http://monumentenregister.cultureelerfgoed.nl/php/monument_pdf.php?OBJnr=45248,beschermd,5.524575126637,53.231744216369
,,,45249,,Archeologisch,Archeologie,Archeologie,Franekeradeel,Friesland,Sexbierum,,,8855 ZA,http://monumentenregister.cultureelerfgoed.nl/php/monument_pdf.php?OBJnr=45249,beschermd,5.571015710119,53.232311012314
,,,45253,,Archeologisch,Archeologie,Archeologie,Appingedam,Groningen,Marsum,,,9900 AA,http://monumentenregister.cultureelerfgoed.nl/php/monument_pdf.php?OBJnr=45253,beschermd,6.874457102023,53.340125744061
,,,45254,,Archeologisch,Archeologie,Archeologie,Appingedam,Groningen,Opwierde,,,9900 AA,http://monumentenregister.cultureelerfgoed.nl/php/monument_pdf.php?OBJnr=45254,beschermd,6.874347644954,53.313472932198
,,,45255,,Archeologisch,Archeologie,Archeologie,Appingedam,Groningen,Solwerd,,,9900 AA,http://monumentenregister.cultureelerfgoed.nl/php/monument_pdf.php?OBJnr=45255,beschermd,6.869166495155,53.32382657577
,,,45303,,Archeologisch,Archeologie,Archeologie,Delfzijl,Groningen,Uitwierde,,,9905 ZA,http://monumentenregister.cultureelerfgoed.nl/php/monument_pdf.php?OBJnr=45303,beschermd,6.895499557542,53.34158902542
,,,45304,,Archeologisch,Archeologie,Archeologie,Tynaarlo,Drenthe,Midlaren,,,9470 AA,http://monumentenregister.cultureelerfgoed.nl/php/monument_pdf.php?OBJnr=45304,beschermd,6.681150917535,53.107390350615
,,,45305,,Archeologisch,Archeologie,Archeologie,Delfzijl,Groningen,Biessum,,,9905 ZA,http://monumentenregister.cultureelerfgoed.nl/php/monument_pdf.php?OBJnr=45305,beschermd,6.891969456162,53.333383587515
,,,45306,,Archeologisch,Archeologie,Archeologie,Delfzijl,Groningen,Weiwerd,,,9905 ZA,http://monumentenregister.cultureelerfgoed.nl/php/monument_pdf.php?OBJnr=45306,beschermd,6.950573906928,53.311292253053
,,,45307,,Archeologisch,Archeologie,Archeologie,Delfzijl,Groningen,Delfzijl,,,9930 AA,http://monumentenregister.cultureelerfgoed.nl/php/monument_pdf.php?OBJnr=45307,beschermd,6.889164541266,53.328718681043
,,,45309,,Archeologisch,Archeologie,Archeologie,Delfzijl,Groningen,Amsweer,,,9905 ZA,http://monumentenregister.cultureelerfgoed.nl/php/monument_pdf.php?OBJnr=45309,beschermd,6.903320037025,53.308240136136
,,,45310,,Archeologisch,Archeologie,Archeologie,Delfzijl,Groningen,Amsweer,,,9905 ZA,http://monumentenregister.cultureelerfgoed.nl/php/monument_pdf.php?OBJnr=45310,beschermd,6.907343701717,53.306185270228
,,,45311,,Archeologisch,Archeologie,Archeologie,Delfzijl,Groningen,Amsweer,,,9905 ZA,http://monumentenregister.cultureelerfgoed.nl/php/monument_pdf.php?OBJnr=45311,beschermd,6.909984591056,53.310016109614
,,,45313,,Archeologisch,Archeologie,Archeologie,Delfzijl,Groningen,Farmsum,,,9905 ZA,http://monumentenregister.cultureelerfgoed.nl/php/monument_pdf.php?OBJnr=45313,beschermd,6.972465916951,53.300661621382
,,,45314,,Archeologisch,Archeologie,Archeologie,Dongeradeel,Friesland,Foudgum,,,9100 AA,http://monumentenregister.cultureelerfgoed.nl/php/monument_pdf.php?OBJnr=45314,beschermd,5.940831986838,53.345254681184
,,,45315,,Archeologisch,Archeologie,Archeologie,Dongeradeel,Friesland,Brantgum,,,9153 ZA,http://monumentenregister.cultureelerfgoed.nl/php/monument_pdf.php?OBJnr=45315,beschermd,5.929320406539,53.351605845898
,,,45316,,Archeologisch,Archeologie,Archeologie,Dongeradeel,Friesland,Waaxens,,,9100 AA,http://monumentenregister.cultureelerfgoed.nl/php/monument_pdf.php?OBJnr=45316,beschermd,5.920532236446,53.357413705062
,,,45317,,Archeologisch,Archeologie,Archeologie,Dongeradeel,Friesland,Waaxens,,,9100 AA,http://monumentenregister.cultureelerfgoed.nl/php/monument_pdf.php?OBJnr=45317,beschermd,5.917875316005,53.357533282195
,,,45318,,Archeologisch,Archeologie,Archeologie,Dongeradeel,Friesland,Waaxens,,,9100 AA,http://monumentenregister.cultureelerfgoed.nl/php/monument_pdf.php?OBJnr=45318,beschermd,5.9151011146,53.36156191075
,,,45319,,Archeologisch,Archeologie,Archeologie,Dongeradeel,Friesland,Oostrum,,,9100 AA,http://monumentenregister.cultureelerfgoed.nl/php/monument_pdf.php?OBJnr=45319,beschermd,6.062010801119,53.332316598772
,,,45320,,Archeologisch,Archeologie,Archeologie,Dongeradeel,Friesland,Hantum,,,9147 ZA,http://monumentenregister.cultureelerfgoed.nl/php/monument_pdf.php?OBJnr=45320,beschermd,5.962232288089,53.362415051087
,,,45321,,Archeologisch,Archeologie,Archeologie,Dongeradeel,Friesland,Bornwird,,,9100 AA,http://monumentenregister.cultureelerfgoed.nl/php/monument_pdf.php?OBJnr=45321,beschermd,5.931411787792,53.334101942288
,,,45322,,Archeologisch,Archeologie,Archeologie,Dongeradeel,Friesland,Bornwird,,,9100 AA,http://monumentenregister.cultureelerfgoed.nl/php/monument_pdf.php?OBJnr=45322,beschermd,5.95364751615,53.33443052174
,,,45323,,Archeologisch,Archeologie,Archeologie,Dongeradeel,Friesland,Hiaure,,,9100 AA,http://monumentenregister.cultureelerfgoed.nl/php/monument_pdf.php?OBJnr=45323,beschermd,5.972655504619,53.347961280957
,,,45324,,Archeologisch,Archeologie,Archeologie,Dongeradeel,Friesland,Bornwird,,,9100 AA,http://monumentenregister.cultureelerfgoed.nl/php/monument_pdf.php?OBJnr=45324,beschermd,5.979236360711,53.336230099808
,,,45325,,Archeologisch,Archeologie,Archeologie,Dongeradeel,Friesland,Hantumeruitburen,,,9100 AA,http://monumentenregister.cultureelerfgoed.nl/php/monument_pdf.php?OBJnr=45325,beschermd,5.988490770874,53.355017507841
,,,45326,,Archeologisch,Archeologie,Archeologie,Dongeradeel,Friesland,Hantum,,,9147 ZA,http://monumentenregister.cultureelerfgoed.nl/php/monument_pdf.php?OBJnr=45326,beschermd,6.00137853092,53.35936418273
,,,45327,,Archeologisch,Archeologie,Archeologie,Dongeradeel,Friesland,Hantumhuizen,,,9100 AA,http://monumentenregister.cultureelerfgoed.nl/php/monument_pdf.php?OBJnr=45327,beschermd,5.996967332874,53.372415334269
,,,45328,,Archeologisch,Archeologie,Archeologie,Dongeradeel,Friesland,Nes,,,9100 AA,http://monumentenregister.cultureelerfgoed.nl/php/monument_pdf.php?OBJnr=45328,beschermd,6.030141653065,53.385495915338
,,,45331,,Archeologisch,Archeologie,Archeologie,Dongeradeel,Friesland,Holwerd,,,9150 AA,http://monumentenregister.cultureelerfgoed.nl/php/monument_pdf.php?OBJnr=45331,beschermd,5.907018762542,53.347777744867
,,,45369,,Archeologisch,Archeologie,Archeologie,Emmen,Drenthe,Westenesch,,,7800 AA,http://monumentenregister.cultureelerfgoed.nl/php/monument_pdf.php?OBJnr=45369,beschermd,6.870302338954,52.795942372543
,,,45370,,Archeologisch,Archeologie,Archeologie,Emmen,Drenthe,Westenesch,,,7800 AA,http://monumentenregister.cultureelerfgoed.nl/php/monument_pdf.php?OBJnr=45370,beschermd,6.872218342507,52.787730424023
,,,45371,,Archeologisch,Archeologie,Archeologie,Emmen,Drenthe,Emmen,,,7800 AA,http://monumentenregister.cultureelerfgoed.nl/php/monument_pdf.php?OBJnr=45371,beschermd,6.887430089992,52.793382066801
,,,45372,,Archeologisch,Archeologie,Archeologie,Emmen,Drenthe,Emmen,,,7800 AA,http://monumentenregister.cultureelerfgoed.nl/php/monument_pdf.php?OBJnr=45372,beschermd,6.885710882973,52.79990204816
,,,45373,,Archeologisch,Archeologie,Archeologie,Emmen,Drenthe,Emmen,,,7800 AA,http://monumentenregister.cultureelerfgoed.nl/php/monument_pdf.php?OBJnr=45373,beschermd,6.885086158961,52.799846986859
,,,45374,,Archeologisch,Archeologie,Archeologie,Emmen,Drenthe,Emmen,,,7800 AA,http://monumentenregister.cultureelerfgoed.nl/php/monument_pdf.php?OBJnr=45374,beschermd,6.907753178569,52.791524551696
,,,45375,,Archeologisch,Archeologie,Archeologie,Emmen,Drenthe,Emmen,,,7800 AA,http://monumentenregister.cultureelerfgoed.nl/php/monument_pdf.php?OBJnr=45375,beschermd,6.93779653197,52.781178455074
,,,45376,,Archeologisch,Archeologie,Archeologie,Emmen,Drenthe,Emmen,,,7800 AA,http://monumentenregister.cultureelerfgoed.nl/php/monument_pdf.php?OBJnr=45376,beschermd,6.93584429785,52.78381940507
,,,45377,,Archeologisch,Archeologie,Archeologie,Emmen,Drenthe,Emmen,,,7800 AA,http://monumentenregister.cultureelerfgoed.nl/php/monument_pdf.php?OBJnr=45377,beschermd,6.928436395,52.794889980957
,,,45378,,Archeologisch,Archeologie,Archeologie,Emmen,Drenthe,Emmen,,,7800 AA,http://monumentenregister.cultureelerfgoed.nl/php/monument_pdf.php?OBJnr=45378,beschermd,6.929927099456,52.797639027204
,,,45379,,Archeologisch,Archeologie,Archeologie,Emmen,Drenthe,Emmen,,,7800 AA,http://monumentenregister.cultureelerfgoed.nl/php/monument_pdf.php?OBJnr=45379,beschermd,6.922817412025,52.802099080472
,,,45380,,Archeologisch,Archeologie,Archeologie,Emmen,Drenthe,Emmen,,,7800 AA,http://monumentenregister.cultureelerfgoed.nl/php/monument_pdf.php?OBJnr=45380,beschermd,6.911478357783,52.800572886182
,,,45381,,Archeologisch,Archeologie,Archeologie,Emmen,Drenthe,Emmen,,,7800 AA,http://monumentenregister.cultureelerfgoed.nl/php/monument_pdf.php?OBJnr=45381,beschermd,6.906566462441,52.80475214722
,,,45382,,Archeologisch,Archeologie,Archeologie,Emmen,Drenthe,Emmen,,,7800 AA,http://monumentenregister.cultureelerfgoed.nl/php/monument_pdf.php?OBJnr=45382,beschermd,6.909853158333,52.804584363747
,,,45383,,Archeologisch,Archeologie,Archeologie,Emmen,Drenthe,Emmen,,,7800 AA,http://monumentenregister.cultureelerfgoed.nl/php/monument_pdf.php?OBJnr=45383,beschermd,6.887594210482,52.811149316869
,,,45384,,Archeologisch,Archeologie,Archeologie,Emmen,Drenthe,Emmen,,,7800 AA,http://monumentenregister.cultureelerfgoed.nl/php/monument_pdf.php?OBJnr=45384,beschermd,6.885001868914,52.813851358258
,,,45385,,Archeologisch,Archeologie,Archeologie,Emmen,Drenthe,Emmen,,,7800 AA,http://monumentenregister.cultureelerfgoed.nl/php/monument_pdf.php?OBJnr=45385,beschermd,6.889175943876,52.813151693265
,,,45386,,Archeologisch,Archeologie,Archeologie,Emmen,Drenthe,Emmen,,,7800 AA,http://monumentenregister.cultureelerfgoed.nl/php/monument_pdf.php?OBJnr=45386,beschermd,6.885077452504,52.818658979172
,,,45387,,Archeologisch,Archeologie,Archeologie,Emmen,Drenthe,Emmen,,,7800 AA,http://monumentenregister.cultureelerfgoed.nl/php/monument_pdf.php?OBJnr=45387,beschermd,6.882739089156,52.821429672569
,,,45388,,Archeologisch,Archeologie,Archeologie,Emmen,Drenthe,Emmen,,,7800 AA,http://monumentenregister.cultureelerfgoed.nl/php/monument_pdf.php?OBJnr=45388,beschermd,6.885418348518,52.819948963293
,,,45389,,Archeologisch,Archeologie,Archeologie,Borger-Odoorn,Drenthe,Valthe,,,7872 ZA,http://monumentenregister.cultureelerfgoed.nl/php/monument_pdf.php?OBJnr=45389,beschermd,6.892858728292,52.823180764406
,,,45390,,Archeologisch,Archeologie,Archeologie,Emmen,Drenthe,Emmen,,,7800 AA,http://monumentenregister.cultureelerfgoed.nl/php/monument_pdf.php?OBJnr=45390,beschermd,6.969305531,52.783487559063
,,,45391,,Archeologisch,Archeologie,Archeologie,Emmen,Drenthe,Nieuw-Dordrecht,,,7800 AA,http://monumentenregister.cultureelerfgoed.nl/php/monument_pdf.php?OBJnr=45391,beschermd,6.984918778222,52.755945812833
,,,45393,,Archeologisch,Archeologie,Archeologie,Tynaarlo,Drenthe,Schelfhorst,,,9760 NA,http://monumentenregister.cultureelerfgoed.nl/php/monument_pdf.php?OBJnr=45393,beschermd,6.546553044668,53.157674011706
,,,45394,,Archeologisch,Archeologie,Archeologie,Tynaarlo,Drenthe,Eelde,,,9760 NA,http://monumentenregister.cultureelerfgoed.nl/php/monument_pdf.php?OBJnr=45394,beschermd,6.582961059307,53.140430491875
,,,45395,,Archeologisch,Archeologie,Archeologie,Tynaarlo,Drenthe,Eelde,,,9760 NA,http://monumentenregister.cultureelerfgoed.nl/php/monument_pdf.php?OBJnr=45395,beschermd,6.565059600142,53.126786343957
,,,45396,,Archeologisch,Archeologie,Archeologie,Tynaarlo,Drenthe,Eelde,,,9760 NA,http://monumentenregister.cultureelerfgoed.nl/php/monument_pdf.php?OBJnr=45396,beschermd,6.598619224057,53.135465353309
,,,45399,,Archeologisch,Archeologie,Archeologie,Tynaarlo,Drenthe,Midlaren,,,9470 AA,http://monumentenregister.cultureelerfgoed.nl/php/monument_pdf.php?OBJnr=45399,beschermd,6.655585530111,53.102334628169
,,,45452,,Archeologisch,Archeologie,Archeologie,Tynaarlo,Drenthe,Midlaren,,,9470 AA,http://monumentenregister.cultureelerfgoed.nl/php/monument_pdf.php?OBJnr=45452,beschermd,6.67157811773,53.107385550156
,,,45619,,Archeologisch,Archeologie,Archeologie,Bedum,Groningen,Zuidwolde,,,9785 ZA,http://monumentenregister.cultureelerfgoed.nl/php/monument_pdf.php?OBJnr=45619,beschermd,6.573015201255,53.25642767356
,,,45620,,Archeologisch,Archeologie,Archeologie,Bedum,Groningen,Zuidwolde,,,9785 ZA,http://monumentenregister.cultureelerfgoed.nl/php/monument_pdf.php?OBJnr=45620,beschermd,6.573809593286,53.260796144605
,,,45621,,Archeologisch,Archeologie,Archeologie,Groningen,Groningen,Dorkwerd,,,9700 AA,http://monumentenregister.cultureelerfgoed.nl/php/monument_pdf.php?OBJnr=45621,beschermd,6.520847716809,53.2385726797
,,,46014,,Archeologisch,Archeologie,Archeologie,Terschelling,Friesland,Midsland,,,8880 AA,http://monumentenregister.cultureelerfgoed.nl/php/monument_pdf.php?OBJnr=46014,beschermd,5.267541116648,53.377765392125
,,,46015,,Archeologisch,Archeologie,Archeologie,Terschelling,Friesland,Midsland,,,8880 AA,http://monumentenregister.cultureelerfgoed.nl/php/monument_pdf.php?OBJnr=46015,beschermd,5.2837210875,53.3790292937
,,,46016,,Archeologisch,Archeologie,Archeologie,Terschelling,Friesland,Formerum,,,8880 AA,http://monumentenregister.cultureelerfgoed.nl/php/monument_pdf.php?OBJnr=46016,beschermd,5.311095982128,53.389400437529
,,,46017,,Archeologisch,Archeologie,Archeologie,Terschelling,Friesland,Lies,,,8880 AA,http://monumentenregister.cultureelerfgoed.nl/php/monument_pdf.php?OBJnr=46017,beschermd,5.330765566704,53.393041183633
,,,45507,,Archeologisch,Archeologie,Archeologie,Ferwerderadiel,Friesland,Hallum,,,9074 ZA,http://monumentenregister.cultureelerfgoed.nl/php/monument_pdf.php?OBJnr=45507,beschermd,5.751736319458,53.297554912329
,,,45508,,Archeologisch,Archeologie,Archeologie,Ferwerderadiel,Friesland,Hallum,,,9074 ZA,http://monumentenregister.cultureelerfgoed.nl/php/monument_pdf.php?OBJnr=45508,beschermd,5.765551618655,53.308034061248
,,,45509,,Archeologisch,Archeologie,Archeologie,Ferwerderadiel,Friesland,Hallum,,,9074 ZA,http://monumentenregister.cultureelerfgoed.nl/php/monument_pdf.php?OBJnr=45509,beschermd,5.768132765829,53.314917664382
,,,45510,,Archeologisch,Archeologie,Archeologie,Ferwerderadiel,Friesland,Hallum,,,9074 ZA,http://monumentenregister.cultureelerfgoed.nl/php/monument_pdf.php?OBJnr=45510,beschermd,5.77759680218,53.321141077574
,,,45511,,Archeologisch,Archeologie,Archeologie,Ferwerderadiel,Friesland,Ferwert,,,9172 ZA,http://monumentenregister.cultureelerfgoed.nl/php/monument_pdf.php?OBJnr=45511,beschermd,5.802270253783,53.340134187087
,,,45512,,Archeologisch,Archeologie,Archeologie,Ferwerderadiel,Friesland,Ferwert,,,9172 ZA,http://monumentenregister.cultureelerfgoed.nl/php/monument_pdf.php?OBJnr=45512,beschermd,5.796699286092,53.327385197324
,,,45513,,Archeologisch,Archeologie,Archeologie,Ferwerderadiel,Friesland,Ferwert,,,9172 ZA,http://monumentenregister.cultureelerfgoed.nl/php/monument_pdf.php?OBJnr=45513,beschermd,5.798812869586,53.32868084714
,,,45514,,Archeologisch,Archeologie,Archeologie,Ferwerderadiel,Friesland,Ferwert,,,9172 ZA,http://monumentenregister.cultureelerfgoed.nl/php/monument_pdf.php?OBJnr=45514,beschermd,5.808793021561,53.333192818374
,,,45515,,Archeologisch,Archeologie,Archeologie,Ferwerderadiel,Friesland,Ferwert,,,9172 ZA,http://monumentenregister.cultureelerfgoed.nl/php/monument_pdf.php?OBJnr=45515,beschermd,5.797392066178,53.33866836137
,,,45516,,Archeologisch,Archeologie,Archeologie,Ferwerderadiel,Friesland,Ferwert,,,9172 ZA,http://monumentenregister.cultureelerfgoed.nl/php/monument_pdf.php?OBJnr=45516,beschermd,5.803490525678,53.34057024595
,,,45517,,Archeologisch,Archeologie,Archeologie,Ferwerderadiel,Friesland,Ferwert,,,9172 ZA,http://monumentenregister.cultureelerfgoed.nl/php/monument_pdf.php?OBJnr=45517,beschermd,5.831247511334,53.350525441953
,,,45518,,Archeologisch,Archeologie,Archeologie,Ferwerderadiel,Friesland,Blije,,,9170 AA,http://monumentenregister.cultureelerfgoed.nl/php/monument_pdf.php?OBJnr=45518,beschermd,5.854402701857,53.354624831736
,,,45519,,Archeologisch,Archeologie,Archeologie,Ferwerderadiel,Friesland,Blije,,,9170 AA,http://monumentenregister.cultureelerfgoed.nl/php/monument_pdf.php?OBJnr=45519,beschermd,5.856335777575,53.356989412261
,,,45520,,Archeologisch,Archeologie,Archeologie,Ferwerderadiel,Friesland,Ferwert,,,9172 ZA,http://monumentenregister.cultureelerfgoed.nl/php/monument_pdf.php?OBJnr=45520,beschermd,5.872304346196,53.354625828608
,,,45521,,Archeologisch,Archeologie,Archeologie,Ferwerderadiel,Friesland,Ferwert,,,9172 ZA,http://monumentenregister.cultureelerfgoed.nl/php/monument_pdf.php?OBJnr=45521,beschermd,5.877437102754,53.346410436252
,,,45522,,Archeologisch,Archeologie,Archeologie,Ferwerderadiel,Friesland,Ferwert,,,9172 ZA,http://monumentenregister.cultureelerfgoed.nl/php/monument_pdf.php?OBJnr=45522,beschermd,5.867813258723,53.338425417191
,,,45523,,Archeologisch,Archeologie,Archeologie,Ferwerderadiel,Friesland,Hegebeintum,,,9073 ZA,http://monumentenregister.cultureelerfgoed.nl/php/monument_pdf.php?OBJnr=45523,beschermd,5.850143756952,53.337048125234
,,,45524,,Archeologisch,Archeologie,Archeologie,Ferwerderadiel,Friesland,Lichtaard,,,9073 ZA,http://monumentenregister.cultureelerfgoed.nl/php/monument_pdf.php?OBJnr=45524,beschermd,5.904181863037,53.329109462767
,,,45525,,Archeologisch,Archeologie,Archeologie,Ferwerderadiel,Friesland,Lichtaard,,,9073 ZA,http://monumentenregister.cultureelerfgoed.nl/php/monument_pdf.php?OBJnr=45525,beschermd,5.913215623952,53.326500452137
,,,45526,,Archeologisch,Archeologie,Archeologie,Ferwerderadiel,Friesland,Reitsum,,,9073 ZA,http://monumentenregister.cultureelerfgoed.nl/php/monument_pdf.php?OBJnr=45526,beschermd,5.889411118534,53.321246989715
,,,45527,,Archeologisch,Archeologie,Archeologie,Ferwerderadiel,Friesland,Ginnum,,,9073 ZA,http://monumentenregister.cultureelerfgoed.nl/php/monument_pdf.php?OBJnr=45527,beschermd,5.875161733152,53.323174645465
,,,45528,,Archeologisch,Archeologie,Archeologie,Ferwerderadiel,Friesland,Jislum,,,9073 ZA,http://monumentenregister.cultureelerfgoed.nl/php/monument_pdf.php?OBJnr=45528,beschermd,5.877622687093,53.312606803374
,,,45529,,Archeologisch,Archeologie,Archeologie,Ferwerderadiel,Friesland,W�nswert,,,9073 ZA,http://monumentenregister.cultureelerfgoed.nl/php/monument_pdf.php?OBJnr=45529,beschermd,5.870321901627,53.295734800448
,,,45530,,Archeologisch,Archeologie,Archeologie,Ferwerderadiel,Friesland,W�nswert,,,9073 ZA,http://monumentenregister.cultureelerfgoed.nl/php/monument_pdf.php?OBJnr=45530,beschermd,5.849683664672,53.301189312382
,,,45531,,Archeologisch,Archeologie,Archeologie,Ferwerderadiel,Friesland,W�nswert,,,9073 ZA,http://monumentenregister.cultureelerfgoed.nl/php/monument_pdf.php?OBJnr=45531,beschermd,5.841828154311,53.304436071976
,,,45532,,Archeologisch,Archeologie,Archeologie,Ferwerderadiel,Friesland,Ferwert,,,9172 ZA,http://monumentenregister.cultureelerfgoed.nl/php/monument_pdf.php?OBJnr=45532,beschermd,5.836014734965,53.319499450972
,,,45533,,Archeologisch,Archeologie,Archeologie,Ferwerderadiel,Friesland,Ferwert,,,9172 ZA,http://monumentenregister.cultureelerfgoed.nl/php/monument_pdf.php?OBJnr=45533,beschermd,5.839969381291,53.32883835777
,,,45534,,Archeologisch,Archeologie,Archeologie,Ferwerderadiel,Friesland,Marrum,,,9073 ZA,http://monumentenregister.cultureelerfgoed.nl/php/monument_pdf.php?OBJnr=45534,beschermd,5.807564537628,53.318056856694
,,,45535,,Archeologisch,Archeologie,Archeologie,Ferwerderadiel,Friesland,Hallum,,,9074 ZA,http://monumentenregister.cultureelerfgoed.nl/php/monument_pdf.php?OBJnr=45535,beschermd,5.796319301622,53.312659532843
,,,45536,,Archeologisch,Archeologie,Archeologie,Ferwerderadiel,Friesland,Hallum,,,9074 ZA,http://monumentenregister.cultureelerfgoed.nl/php/monument_pdf.php?OBJnr=45536,beschermd,5.805165651762,53.295053671819
,,,45569,,Archeologisch,Archeologie,Archeologie,Tynaarlo,Drenthe,Midlaren,,,9470 AA,http://monumentenregister.cultureelerfgoed.nl/php/monument_pdf.php?OBJnr=45569,beschermd,6.65150191432,53.10721273167
,,,45583,,Archeologisch,Archeologie,Archeologie,Delfzijl,Groningen,Holwierde,,,9905 ZA,http://monumentenregister.cultureelerfgoed.nl/php/monument_pdf.php?OBJnr=45583,beschermd,6.870156467741,53.356947665703
,,,45584,,Archeologisch,Archeologie,Archeologie,Delfzijl,Groningen,Holwierde,,,9905 ZA,http://monumentenregister.cultureelerfgoed.nl/php/monument_pdf.php?OBJnr=45584,beschermd,6.875171521842,53.358629097645
,,,45585,,Archeologisch,Archeologie,Archeologie,Delfzijl,Groningen,Nansum,,,9905 ZA,http://monumentenregister.cultureelerfgoed.nl/php/monument_pdf.php?OBJnr=45585,beschermd,6.887154823012,53.358084835082
,,,45586,,Archeologisch,Archeologie,Archeologie,Delfzijl,Groningen,Bierum,,,9906 ZA,http://monumentenregister.cultureelerfgoed.nl/php/monument_pdf.php?OBJnr=45586,beschermd,6.892979832978,53.357131366868
,,,45587,,Archeologisch,Archeologie,Archeologie,Delfzijl,Groningen,Bierum,,,9906 ZA,http://monumentenregister.cultureelerfgoed.nl/php/monument_pdf.php?OBJnr=45587,beschermd,6.887027702559,53.366938105694
,,,45588,,Archeologisch,Archeologie,Archeologie,Delfzijl,Groningen,Oldenklooster,,,9905 ZA,http://monumentenregister.cultureelerfgoed.nl/php/monument_pdf.php?OBJnr=45588,beschermd,6.853842567754,53.364408755404
,,,45589,,Archeologisch,Archeologie,Archeologie,Delfzijl,Groningen,Godlinze,,,9905 ZA,http://monumentenregister.cultureelerfgoed.nl/php/monument_pdf.php?OBJnr=45589,beschermd,6.81338105089,53.371563176102
,,,45590,,Archeologisch,Archeologie,Archeologie,Delfzijl,Groningen,Bierum,,,9906 ZA,http://monumentenregister.cultureelerfgoed.nl/php/monument_pdf.php?OBJnr=45590,beschermd,6.846654192941,53.345148402898
,,,45591,,Archeologisch,Archeologie,Archeologie,Delfzijl,Groningen,Bierum,,,9906 ZA,http://monumentenregister.cultureelerfgoed.nl/php/monument_pdf.php?OBJnr=45591,beschermd,6.847204864666,53.355188566866
,,,45592,,Archeologisch,Archeologie,Archeologie,Delfzijl,Groningen,Bierum,,,9906 ZA,http://monumentenregister.cultureelerfgoed.nl/php/monument_pdf.php?OBJnr=45592,beschermd,6.835787307746,53.390382415163
,,,45593,,Archeologisch,Archeologie,Archeologie,Delfzijl,Groningen,Bierum,,,9906 ZA,http://monumentenregister.cultureelerfgoed.nl/php/monument_pdf.php?OBJnr=45593,beschermd,6.861186970107,53.380575381189
,,,45594,,Archeologisch,Archeologie,Archeologie,Zuidhorn,Groningen,Selwerd,,,9800 AA,http://monumentenregister.cultureelerfgoed.nl/php/monument_pdf.php?OBJnr=45594,beschermd,6.543818812637,53.244482175083
,,,45595,,Archeologisch,Archeologie,Archeologie,Groningen,Groningen,Groningen,,,9700 AA,http://monumentenregister.cultureelerfgoed.nl/php/monument_pdf.php?OBJnr=45595,beschermd,6.546978658238,53.246671299595
,,,45596,,Archeologisch,Archeologie,Archeologie,Groningen,Groningen,Groningen,,,9700 AA,http://monumentenregister.cultureelerfgoed.nl/php/monument_pdf.php?OBJnr=45596,beschermd,6.534960945833,53.255602312678
,,,45597,,Archeologisch,Archeologie,Archeologie,Zuidhorn,Groningen,Selwerd,,,9800 AA,http://monumentenregister.cultureelerfgoed.nl/php/monument_pdf.php?OBJnr=45597,beschermd,6.542116022273,53.25251431966
,,,45598,,Archeologisch,Archeologie,Archeologie,Zuidhorn,Groningen,Selwerd,,,9800 AA,http://monumentenregister.cultureelerfgoed.nl/php/monument_pdf.php?OBJnr=45598,beschermd,6.538524828133,53.243706329505
,,,45599,,Archeologisch,Archeologie,Archeologie,Groningen,Groningen,Noorddijk,,,9700 AA,http://monumentenregister.cultureelerfgoed.nl/php/monument_pdf.php?OBJnr=45599,beschermd,6.587413709272,53.239093745632
,,,45600,,Archeologisch,Archeologie,Archeologie,Groningen,Groningen,Leegkerk,,,9700 AA,http://monumentenregister.cultureelerfgoed.nl/php/monument_pdf.php?OBJnr=45600,beschermd,6.487316051093,53.229395230116
,,,45601,,Archeologisch,Archeologie,Archeologie,Groningen,Groningen,Leegkerk,,,9700 AA,http://monumentenregister.cultureelerfgoed.nl/php/monument_pdf.php?OBJnr=45601,beschermd,6.488795771997,53.229282807976
,,,45602,,Archeologisch,Archeologie,Archeologie,Groningen,Groningen,Leegkerk,,,9700 AA,http://monumentenregister.cultureelerfgoed.nl/php/monument_pdf.php?OBJnr=45602,beschermd,6.490552551707,53.229464366967
,,,45603,,Archeologisch,Archeologie,Archeologie,Groningen,Groningen,Leegkerk,,,9700 AA,http://monumentenregister.cultureelerfgoed.nl/php/monument_pdf.php?OBJnr=45603,beschermd,6.490450292414,53.227218743314
,,,45604,,Archeologisch,Archeologie,Archeologie,Groningen,Groningen,Leegkerk,,,9700 AA,http://monumentenregister.cultureelerfgoed.nl/php/monument_pdf.php?OBJnr=45604,beschermd,6.492129881191,53.226727018865
,,,45605,,Archeologisch,Archeologie,Archeologie,Groningen,Groningen,Leegkerk,,,9700 AA,http://monumentenregister.cultureelerfgoed.nl/php/monument_pdf.php?OBJnr=45605,beschermd,6.492321825525,53.225449201904
,,,45606,,Archeologisch,Archeologie,Archeologie,Groningen,Groningen,Leegkerk,,,9700 AA,http://monumentenregister.cultureelerfgoed.nl/php/monument_pdf.php?OBJnr=45606,beschermd,6.499370429181,53.229356014947
,,,45607,,Archeologisch,Archeologie,Archeologie,Groningen,Groningen,Leegkerk,,,9700 AA,http://monumentenregister.cultureelerfgoed.nl/php/monument_pdf.php?OBJnr=45607,beschermd,6.494982673539,53.235785819796
,,,45608,,Archeologisch,Archeologie,Archeologie,Groningen,Groningen,Leegkerk,,,9700 AA,http://monumentenregister.cultureelerfgoed.nl/php/monument_pdf.php?OBJnr=45608,beschermd,6.494512921754,53.237326800918
,,,45609,,Archeologisch,Archeologie,Archeologie,Groningen,Groningen,Leegkerk,,,9700 AA,http://monumentenregister.cultureelerfgoed.nl/php/monument_pdf.php?OBJnr=45609,beschermd,6.494639163453,53.23816135586
,,,45610,,Archeologisch,Archeologie,Archeologie,Groningen,Groningen,Leegkerk,,,9700 AA,http://monumentenregister.cultureelerfgoed.nl/php/monument_pdf.php?OBJnr=45610,beschermd,6.495601259983,53.238296254998
,,,45611,,Archeologisch,Archeologie,Archeologie,Groningen,Groningen,Leegkerk,,,9700 AA,http://monumentenregister.cultureelerfgoed.nl/php/monument_pdf.php?OBJnr=45611,beschermd,6.495468563533,53.23896246142
,,,45612,,Archeologisch,Archeologie,Archeologie,Groningen,Groningen,Leegkerk,,,9700 AA,http://monumentenregister.cultureelerfgoed.nl/php/monument_pdf.php?OBJnr=45612,beschermd,6.495322965565,53.240293767439
,,,45613,,Archeologisch,Archeologie,Archeologie,Groningen,Groningen,Leegkerk,,,9700 AA,http://monumentenregister.cultureelerfgoed.nl/php/monument_pdf.php?OBJnr=45613,beschermd,6.494095634305,53.240332050326
,,,45614,,Archeologisch,Archeologie,Archeologie,Groningen,Groningen,Leegkerk,,,9700 AA,http://monumentenregister.cultureelerfgoed.nl/php/monument_pdf.php?OBJnr=45614,beschermd,6.498276445269,53.240392272352
,,,45615,,Archeologisch,Archeologie,Archeologie,Groningen,Groningen,Groningen,,,9700 AA,http://monumentenregister.cultureelerfgoed.nl/php/monument_pdf.php?OBJnr=45615,beschermd,6.501157458063,53.241165344674
,,,45616,,Archeologisch,Archeologie,Archeologie,Groningen,Groningen,Groningen,,,9700 AA,http://monumentenregister.cultureelerfgoed.nl/php/monument_pdf.php?OBJnr=45616,beschermd,6.501598612517,53.24374928358
,,,45617,,Archeologisch,Archeologie,Archeologie,Groningen,Groningen,Dorkwerd,,,9700 AA,http://monumentenregister.cultureelerfgoed.nl/php/monument_pdf.php?OBJnr=45617,beschermd,6.512081080413,53.250499017676
,,,45618,,Archeologisch,Archeologie,Archeologie,Groningen,Groningen,Groningen,,,9700 AA,http://monumentenregister.cultureelerfgoed.nl/php/monument_pdf.php?OBJnr=45618,beschermd,6.500650740059,53.240684789586
,,,45655,,Archeologisch,Archeologie,Archeologie,Menameradiel,Friesland,Marssum,,,9034 ZA,http://monumentenregister.cultureelerfgoed.nl/php/monument_pdf.php?OBJnr=45655,beschermd,5.727674459973,53.209558613348
,,,45656,,Archeologisch,Archeologie,Archeologie,Menameradiel,Friesland,Deinum,,,9033 ZA,http://monumentenregister.cultureelerfgoed.nl/php/monument_pdf.php?OBJnr=45656,beschermd,5.723130210575,53.192983904436
,,,45657,,Archeologisch,Archeologie,Archeologie,Menameradiel,Friesland,Boksum,,,9033 ZA,http://monumentenregister.cultureelerfgoed.nl/php/monument_pdf.php?OBJnr=45657,beschermd,5.731416381025,53.179481847513
,,,45658,,Archeologisch,Archeologie,Archeologie,Menameradiel,Friesland,Boksum,,,9033 ZA,http://monumentenregister.cultureelerfgoed.nl/php/monument_pdf.php?OBJnr=45658,beschermd,5.726964160674,53.176313601168
,,,45659,,Archeologisch,Archeologie,Archeologie,Menameradiel,Friesland,Boksum,,,9033 ZA,http://monumentenregister.cultureelerfgoed.nl/php/monument_pdf.php?OBJnr=45659,beschermd,5.734179051186,53.177065707998
,,,45660,,Archeologisch,Archeologie,Archeologie,Menameradiel,Friesland,Blessum,,,9033 ZA,http://monumentenregister.cultureelerfgoed.nl/php/monument_pdf.php?OBJnr=45660,beschermd,5.710384885386,53.181265647616
,,,45661,,Archeologisch,Archeologie,Archeologie,Menameradiel,Friesland,Dronrijp,,,9035 ZA,http://monumentenregister.cultureelerfgoed.nl/php/monument_pdf.php?OBJnr=45661,beschermd,5.638218242162,53.184673331055
,,,45662,,Archeologisch,Archeologie,Archeologie,Menameradiel,Friesland,Dronrijp,,,9035 ZA,http://monumentenregister.cultureelerfgoed.nl/php/monument_pdf.php?OBJnr=45662,beschermd,5.646686672046,53.202401960782
,,,45663,,Archeologisch,Archeologie,Archeologie,Menameradiel,Friesland,Menaldum,,,9036 ZA,http://monumentenregister.cultureelerfgoed.nl/php/monument_pdf.php?OBJnr=45663,beschermd,5.658077249463,53.209906718997
,,,45664,,Archeologisch,Archeologie,Archeologie,Menameradiel,Friesland,Menaldum,,,9036 ZA,http://monumentenregister.cultureelerfgoed.nl/php/monument_pdf.php?OBJnr=45664,beschermd,5.662294586217,53.216402693045
,,,45665,,Archeologisch,Archeologie,Archeologie,Menameradiel,Friesland,Menaldum,,,9036 ZA,http://monumentenregister.cultureelerfgoed.nl/php/monument_pdf.php?OBJnr=45665,beschermd,5.672278391086,53.216226624385
,,,45666,,Archeologisch,Archeologie,Archeologie,Menameradiel,Friesland,Menaldum,,,9036 ZA,http://monumentenregister.cultureelerfgoed.nl/php/monument_pdf.php?OBJnr=45666,beschermd,5.648548329336,53.215768500082
,,,45667,,Archeologisch,Archeologie,Archeologie,Menameradiel,Friesland,Menaldum,,,9036 ZA,http://monumentenregister.cultureelerfgoed.nl/php/monument_pdf.php?OBJnr=45667,beschermd,5.644456073554,53.212326880709
,,,45668,,Archeologisch,Archeologie,Archeologie,Menameradiel,Friesland,Slappeterp,,,9033 ZA,http://monumentenregister.cultureelerfgoed.nl/php/monument_pdf.php?OBJnr=45668,beschermd,5.631207599445,53.217395480605
,,,45669,,Archeologisch,Archeologie,Archeologie,Menameradiel,Friesland,Slappeterp,,,9033 ZA,http://monumentenregister.cultureelerfgoed.nl/php/monument_pdf.php?OBJnr=45669,beschermd,5.620169529923,53.213697400119
,,,45671,,Archeologisch,Archeologie,Archeologie,Menameradiel,Friesland,Slappeterp,,,9033 ZA,http://monumentenregister.cultureelerfgoed.nl/php/monument_pdf.php?OBJnr=45671,beschermd,5.625328813667,53.215502354439
,,,45672,,Archeologisch,Archeologie,Archeologie,Menameradiel,Friesland,Schingen,,,9033 ZA,http://monumentenregister.cultureelerfgoed.nl/php/monument_pdf.php?OBJnr=45672,beschermd,5.616859736635,53.202121345336
,,,45673,,Archeologisch,Archeologie,Archeologie,Menameradiel,Friesland,Schingen,,,9033 ZA,http://monumentenregister.cultureelerfgoed.nl/php/monument_pdf.php?OBJnr=45673,beschermd,5.616411081724,53.199354632483
,,,45674,,Archeologisch,Archeologie,Archeologie,Menameradiel,Friesland,Schingen,,,9033 ZA,http://monumentenregister.cultureelerfgoed.nl/php/monument_pdf.php?OBJnr=45674,beschermd,5.609737093475,53.199349234693
,,,45675,,Archeologisch,Archeologie,Archeologie,Franekeradeel,Friesland,Ried,,,8810 AA,http://monumentenregister.cultureelerfgoed.nl/php/monument_pdf.php?OBJnr=45675,beschermd,5.60349323257,53.228482922788
,,,45676,,Archeologisch,Archeologie,Archeologie,Menameradiel,Friesland,Berlikum,,,9040 AA,http://monumentenregister.cultureelerfgoed.nl/php/monument_pdf.php?OBJnr=45676,beschermd,5.614305908176,53.231589904049
,,,45677,,Archeologisch,Archeologie,Archeologie,Menameradiel,Friesland,Berlikum,,,9040 AA,http://monumentenregister.cultureelerfgoed.nl/php/monument_pdf.php?OBJnr=45677,beschermd,5.63128248398,53.238601214348
,,,45678,,Archeologisch,Archeologie,Archeologie,Menameradiel,Friesland,Wier,,,9033 ZA,http://monumentenregister.cultureelerfgoed.nl/php/monument_pdf.php?OBJnr=45678,beschermd,5.626563765138,53.243867241135
,,,45679,,Archeologisch,Archeologie,Archeologie,Menameradiel,Friesland,Wier,,,9033 ZA,http://monumentenregister.cultureelerfgoed.nl/php/monument_pdf.php?OBJnr=45679,beschermd,5.626288311011,53.250930381905
,,,45680,,Archeologisch,Archeologie,Archeologie,Menameradiel,Friesland,Wier,,,9033 ZA,http://monumentenregister.cultureelerfgoed.nl/php/monument_pdf.php?OBJnr=45680,beschermd,5.621391912542,53.251425253029
,,,45681,,Archeologisch,Archeologie,Archeologie,Menameradiel,Friesland,Beetgum,,,9044 ZA,http://monumentenregister.cultureelerfgoed.nl/php/monument_pdf.php?OBJnr=45681,beschermd,5.687038532149,53.23777396669
,,,45682,,Archeologisch,Archeologie,Archeologie,Menameradiel,Friesland,Beetgum,,,9044 ZA,http://monumentenregister.cultureelerfgoed.nl/php/monument_pdf.php?OBJnr=45682,beschermd,5.684565023284,53.235273157187
,,,45683,,Archeologisch,Archeologie,Archeologie,Menameradiel,Friesland,Beetgum,,,9044 ZA,http://monumentenregister.cultureelerfgoed.nl/php/monument_pdf.php?OBJnr=45683,beschermd,5.679826012661,53.22990246565
,,,45684,,Archeologisch,Archeologie,Archeologie,Menameradiel,Friesland,Beetgum,,,9044 ZA,http://monumentenregister.cultureelerfgoed.nl/php/monument_pdf.php?OBJnr=45684,beschermd,5.664422183946,53.230693834471
,,,45686,,Archeologisch,Archeologie,Archeologie,Menameradiel,Friesland,Berlikum,,,9040 AA,http://monumentenregister.cultureelerfgoed.nl/php/monument_pdf.php?OBJnr=45686,beschermd,5.653335233786,53.237089685112
,,,45691,,Archeologisch,Archeologie,Archeologie,Leeuwarden,Friesland,Leeuwarden,,,8900 AA,http://monumentenregister.cultureelerfgoed.nl/php/monument_pdf.php?OBJnr=45691,beschermd,5.832538701426,53.228516310793
,,,45692,,Archeologisch,Archeologie,Archeologie,Leeuwarden,Friesland,Leeuwarden,,,8900 AA,http://monumentenregister.cultureelerfgoed.nl/php/monument_pdf.php?OBJnr=45692,beschermd,5.803120161246,53.180898924727
,,,45693,,Archeologisch,Archeologie,Archeologie,Leeuwarden,Friesland,Leeuwarden,,,8900 AA,http://monumentenregister.cultureelerfgoed.nl/php/monument_pdf.php?OBJnr=45693,beschermd,5.841577566063,53.172438510112
,,,45694,,Archeologisch,Archeologie,Archeologie,Leeuwarden,Friesland,Wirdum,,,9088 ZA,http://monumentenregister.cultureelerfgoed.nl/php/monument_pdf.php?OBJnr=45694,beschermd,5.783094132135,53.150100542622
,,,45695,,Archeologisch,Archeologie,Archeologie,Leeuwarden,Friesland,Wirdum,,,9088 ZA,http://monumentenregister.cultureelerfgoed.nl/php/monument_pdf.php?OBJnr=45695,beschermd,5.785392306885,53.133442134136
,,,45696,,Archeologisch,Archeologie,Archeologie,Leeuwarden,Friesland,Wirdum,,,9088 ZA,http://monumentenregister.cultureelerfgoed.nl/php/monument_pdf.php?OBJnr=45696,beschermd,5.781841822659,53.129131671919
,,,45721,,Archeologisch,Archeologie,Archeologie,Ten Boer,Groningen,Ten Boer,,,9790 AA,http://monumentenregister.cultureelerfgoed.nl/php/monument_pdf.php?OBJnr=45721,beschermd,6.69186064739,53.275657196795
,,,45722,,Archeologisch,Archeologie,Archeologie,Ten Boer,Groningen,Ten Boer,,,9790 AA,http://monumentenregister.cultureelerfgoed.nl/php/monument_pdf.php?OBJnr=45722,beschermd,6.715695354787,53.295040234909
,,,45723,,Archeologisch,Archeologie,Archeologie,Ten Boer,Groningen,Ten Post,,,9792 ZA,http://monumentenregister.cultureelerfgoed.nl/php/monument_pdf.php?OBJnr=45723,beschermd,6.708901212423,53.307776953626
,,,45724,,Archeologisch,Archeologie,Archeologie,Ten Boer,Groningen,Ten Post,,,9792 ZA,http://monumentenregister.cultureelerfgoed.nl/php/monument_pdf.php?OBJnr=45724,beschermd,6.709680775296,53.30922416404
,,,45725,,Archeologisch,Archeologie,Archeologie,Ten Boer,Groningen,Ten Boer,,,9790 AA,http://monumentenregister.cultureelerfgoed.nl/php/monument_pdf.php?OBJnr=45725,beschermd,6.733467744918,53.307486265272
,,,45726,,Archeologisch,Archeologie,Archeologie,Ten Boer,Groningen,Ten Boer,,,9790 AA,http://monumentenregister.cultureelerfgoed.nl/php/monument_pdf.php?OBJnr=45726,beschermd,6.740953386339,53.302675319656
,,,45727,,Archeologisch,Archeologie,Archeologie,Ten Boer,Groningen,Ten Boer,,,9790 AA,http://monumentenregister.cultureelerfgoed.nl/php/monument_pdf.php?OBJnr=45727,beschermd,6.734595860874,53.293176248025
,,,45728,,Archeologisch,Archeologie,Archeologie,Ten Boer,Groningen,Wittewierum,,,9790 AA,http://monumentenregister.cultureelerfgoed.nl/php/monument_pdf.php?OBJnr=45728,beschermd,6.748732989055,53.286798229909
,,,45729,,Archeologisch,Archeologie,Archeologie,Ten Boer,Groningen,Ten Boer,,,9790 AA,http://monumentenregister.cultureelerfgoed.nl/php/monument_pdf.php?OBJnr=45729,beschermd,6.730412738813,53.270586208742
,,,45730,,Archeologisch,Archeologie,Archeologie,Ten Boer,Groningen,Thesinge,,,9797 ZA,http://monumentenregister.cultureelerfgoed.nl/php/monument_pdf.php?OBJnr=45730,beschermd,6.651113897954,53.269577801182
,,,45745,,Archeologisch,Archeologie,Archeologie,Loppersum,Groningen,Loppersum,,,9919 ZA,http://monumentenregister.cultureelerfgoed.nl/php/monument_pdf.php?OBJnr=45745,beschermd,6.747527187387,53.337953444478
,,,45746,,Archeologisch,Archeologie,Archeologie,Loppersum,Groningen,Wirdum,,,9917 ZA,http://monumentenregister.cultureelerfgoed.nl/php/monument_pdf.php?OBJnr=45746,beschermd,6.784988768303,53.322732127972
,,,45747,,Archeologisch,Archeologie,Archeologie,Loppersum,Groningen,Loppersum,,,9919 ZA,http://monumentenregister.cultureelerfgoed.nl/php/monument_pdf.php?OBJnr=45747,beschermd,6.797780507222,53.323777886368
,,,45748,,Archeologisch,Archeologie,Archeologie,Loppersum,Groningen,Loppersum,,,9919 ZA,http://monumentenregister.cultureelerfgoed.nl/php/monument_pdf.php?OBJnr=45748,beschermd,6.75060281363,53.304678025528
,,,45749,,Archeologisch,Archeologie,Archeologie,Loppersum,Groningen,Loppersum,,,9919 ZA,http://monumentenregister.cultureelerfgoed.nl/php/monument_pdf.php?OBJnr=45749,beschermd,6.728984786949,53.318670504028
,,,45751,,Archeologisch,Archeologie,Archeologie,Loppersum,Groningen,Wirdum,,,9917 ZA,http://monumentenregister.cultureelerfgoed.nl/php/monument_pdf.php?OBJnr=45751,beschermd,6.783794595253,53.324785926256
,,,45752,,Archeologisch,Archeologie,Archeologie,Loppersum,Groningen,Eekwerderdraai,,,9914 ZA,http://monumentenregister.cultureelerfgoed.nl/php/monument_pdf.php?OBJnr=45752,beschermd,6.801362442783,53.314470754077
,,,45753,,Archeologisch,Archeologie,Archeologie,Loppersum,Groningen,Eekwerderdraai,,,9914 ZA,http://monumentenregister.cultureelerfgoed.nl/php/monument_pdf.php?OBJnr=45753,beschermd,6.802559596367,53.315283417083
,,,45754,,Archeologisch,Archeologie,Archeologie,Loppersum,Groningen,Eekwerderdraai,,,9914 ZA,http://monumentenregister.cultureelerfgoed.nl/php/monument_pdf.php?OBJnr=45754,beschermd,6.803418460025,53.315390123488
,,,45763,,Archeologisch,Archeologie,Archeologie,Loppersum,Groningen,Toornwerd,,,9914 ZA,http://monumentenregister.cultureelerfgoed.nl/php/monument_pdf.php?OBJnr=45763,beschermd,6.63800801719,53.352666805926
,,,45764,,Archeologisch,Archeologie,Archeologie,Loppersum,Groningen,Westerwijtwerd,,,9914 ZA,http://monumentenregister.cultureelerfgoed.nl/php/monument_pdf.php?OBJnr=45764,beschermd,6.648762203984,53.337826202597
,,,45765,,Archeologisch,Archeologie,Archeologie,Loppersum,Groningen,Middelstum,,,9990 AA,http://monumentenregister.cultureelerfgoed.nl/php/monument_pdf.php?OBJnr=45765,beschermd,6.638602607417,53.331785853383
,,,45766,,Archeologisch,Archeologie,Archeologie,Loppersum,Groningen,Middelstum,,,9990 AA,http://monumentenregister.cultureelerfgoed.nl/php/monument_pdf.php?OBJnr=45766,beschermd,6.626144005614,53.317204552555
,,,45767,,Archeologisch,Archeologie,Archeologie,Loppersum,Groningen,Fraamklap,,,9914 ZA,http://monumentenregister.cultureelerfgoed.nl/php/monument_pdf.php?OBJnr=45767,beschermd,6.611328541348,53.337134833707
,,,45768,,Archeologisch,Archeologie,Archeologie,Loppersum,Groningen,Middelstum,,,9990 AA,http://monumentenregister.cultureelerfgoed.nl/php/monument_pdf.php?OBJnr=45768,beschermd,6.673319318609,53.357254697517
,,,45769,,Archeologisch,Archeologie,Archeologie,Loppersum,Groningen,Huizinge,,,9914 ZA,http://monumentenregister.cultureelerfgoed.nl/php/monument_pdf.php?OBJnr=45769,beschermd,6.67131010713,53.345288646398
,,,45770,,Archeologisch,Archeologie,Archeologie,Loppersum,Groningen,Middelstum,,,9990 AA,http://monumentenregister.cultureelerfgoed.nl/php/monument_pdf.php?OBJnr=45770,beschermd,6.645996093872,53.353113636914
,,,45771,,Archeologisch,Archeologie,Archeologie,Loppersum,Groningen,Huizinge,,,9914 ZA,http://monumentenregister.cultureelerfgoed.nl/php/monument_pdf.php?OBJnr=45771,beschermd,6.678058309547,53.346986667593
,,,45772,,Archeologisch,Archeologie,Archeologie,Loppersum,Groningen,Middelstum,,,9990 AA,http://monumentenregister.cultureelerfgoed.nl/php/monument_pdf.php?OBJnr=45772,beschermd,6.642558619749,53.348027489378
,,,45773,,Archeologisch,Archeologie,Archeologie,Loppersum,Groningen,Middelstum,,,9990 AA,http://monumentenregister.cultureelerfgoed.nl/php/monument_pdf.php?OBJnr=45773,beschermd,6.608911631823,53.348787401087
,,,45774,,Archeologisch,Archeologie,Archeologie,Loppersum,Groningen,Middelstum,,,9990 AA,http://monumentenregister.cultureelerfgoed.nl/php/monument_pdf.php?OBJnr=45774,beschermd,6.617983051405,53.337785783524
,,,45775,,Archeologisch,Archeologie,Archeologie,Loppersum,Groningen,Westerwijtwerd,,,9914 ZA,http://monumentenregister.cultureelerfgoed.nl/php/monument_pdf.php?OBJnr=45775,beschermd,6.656025003238,53.330560833351
,,,45776,,Archeologisch,Archeologie,Archeologie,Loppersum,Groningen,Westerwijtwerd,,,9914 ZA,http://monumentenregister.cultureelerfgoed.nl/php/monument_pdf.php?OBJnr=45776,beschermd,6.670904715623,53.330178205595
,,,45870,,Archeologisch,Archeologie,Archeologie,Ooststellingwerf,Friesland,Waskemeer,,,8434 ZA,http://monumentenregister.cultureelerfgoed.nl/php/monument_pdf.php?OBJnr=45870,beschermd,6.309160809219,53.04994828816
,,,45871,,Archeologisch,Archeologie,Archeologie,Ooststellingwerf,Friesland,Waskemeer,,,8434 ZA,http://monumentenregister.cultureelerfgoed.nl/php/monument_pdf.php?OBJnr=45871,beschermd,6.305045492974,53.049278977523
,,,45872,,Archeologisch,Archeologie,Archeologie,Ooststellingwerf,Friesland,Waskemeer,,,8434 ZA,http://monumentenregister.cultureelerfgoed.nl/php/monument_pdf.php?OBJnr=45872,beschermd,6.289258869233,53.047430987385
,,,45873,,Archeologisch,Archeologie,Archeologie,Ooststellingwerf,Friesland,Donkerbroek,,,8435 ZA,http://monumentenregister.cultureelerfgoed.nl/php/monument_pdf.php?OBJnr=45873,beschermd,6.27267735829,53.036510420312
,,,45874,,Archeologisch,Archeologie,Archeologie,Ooststellingwerf,Friesland,Oosterwolde,,,8430 AA,http://monumentenregister.cultureelerfgoed.nl/php/monument_pdf.php?OBJnr=45874,beschermd,6.319102868999,53.017025271555
,,,45875,,Archeologisch,Archeologie,Archeologie,Ooststellingwerf,Friesland,Donkerbroek,,,8435 ZA,http://monumentenregister.cultureelerfgoed.nl/php/monument_pdf.php?OBJnr=45875,beschermd,6.263998775453,53.011295158003
,,,45877,,Archeologisch,Archeologie,Archeologie,Ooststellingwerf,Friesland,Oosterwolde,,,8430 AA,http://monumentenregister.cultureelerfgoed.nl/php/monument_pdf.php?OBJnr=45877,beschermd,6.248834983373,52.99271325769
,,,45878,,Archeologisch,Archeologie,Archeologie,Ooststellingwerf,Friesland,Langedijke,,,8420 AA,http://monumentenregister.cultureelerfgoed.nl/php/monument_pdf.php?OBJnr=45878,beschermd,6.261177858648,52.971747628544
,,,45879,,Archeologisch,Archeologie,Archeologie,Ooststellingwerf,Friesland,Twijtel,,,8420 AA,http://monumentenregister.cultureelerfgoed.nl/php/monument_pdf.php?OBJnr=45879,beschermd,6.185021786773,52.982471153269
,,,45880,,Archeologisch,Archeologie,Archeologie,Dongeradeel,Friesland,Dokkum,,,9100 AA,http://monumentenregister.cultureelerfgoed.nl/php/monument_pdf.php?OBJnr=45880,beschermd,6.028635299948,53.328824267399
,,,45881,,Archeologisch,Archeologie,Archeologie,Dongeradeel,Friesland,Oostrum,,,9100 AA,http://monumentenregister.cultureelerfgoed.nl/php/monument_pdf.php?OBJnr=45881,beschermd,6.052562014204,53.3328275258
,,,45882,,Archeologisch,Archeologie,Archeologie,Dongeradeel,Friesland,Oostrum,,,9100 AA,http://monumentenregister.cultureelerfgoed.nl/php/monument_pdf.php?OBJnr=45882,beschermd,6.058135952427,53.334108423946
,,,45884,,Archeologisch,Archeologie,Archeologie,Dongeradeel,Friesland,Oostrum,,,9100 AA,http://monumentenregister.cultureelerfgoed.nl/php/monument_pdf.php?OBJnr=45884,beschermd,6.064953461969,53.338077698029
,,,45885,,Archeologisch,Archeologie,Archeologie,Dongeradeel,Friesland,Jouswier,,,9100 AA,http://monumentenregister.cultureelerfgoed.nl/php/monument_pdf.php?OBJnr=45885,beschermd,6.077450029979,53.342202811091
,,,45886,,Archeologisch,Archeologie,Archeologie,Dongeradeel,Friesland,Jouswier,,,9100 AA,http://monumentenregister.cultureelerfgoed.nl/php/monument_pdf.php?OBJnr=45886,beschermd,6.078438415896,53.342044380137
,,,45887,,Archeologisch,Archeologie,Archeologie,Dongeradeel,Friesland,Jouswier,,,9100 AA,http://monumentenregister.cultureelerfgoed.nl/php/monument_pdf.php?OBJnr=45887,beschermd,6.079593265891,53.344769312393
,,,45888,,Archeologisch,Archeologie,Archeologie,Dongeradeel,Friesland,Jouswier,,,9100 AA,http://monumentenregister.cultureelerfgoed.nl/php/monument_pdf.php?OBJnr=45888,beschermd,6.073485849722,53.349710373238
,,,45889,,Archeologisch,Archeologie,Archeologie,Dongeradeel,Friesland,Niawier,,,9100 AA,http://monumentenregister.cultureelerfgoed.nl/php/monument_pdf.php?OBJnr=45889,beschermd,6.041352111024,53.362684652209
,,,45890,,Archeologisch,Archeologie,Archeologie,Dongeradeel,Friesland,Metslawier,,,9123 ZA,http://monumentenregister.cultureelerfgoed.nl/php/monument_pdf.php?OBJnr=45890,beschermd,6.058959360086,53.361877756844
,,,45891,,Archeologisch,Archeologie,Archeologie,Dongeradeel,Friesland,Oosternijkerk,,,9137 ZA,http://monumentenregister.cultureelerfgoed.nl/php/monument_pdf.php?OBJnr=45891,beschermd,6.034316278198,53.380271053172
,,,45892,,Archeologisch,Archeologie,Archeologie,Dongeradeel,Friesland,Aalsum,,,9100 AA,http://monumentenregister.cultureelerfgoed.nl/php/monument_pdf.php?OBJnr=45892,beschermd,6.002906130586,53.339103345689
,,,45893,,Archeologisch,Archeologie,Archeologie,Dongeradeel,Friesland,Aalsum,,,9100 AA,http://monumentenregister.cultureelerfgoed.nl/php/monument_pdf.php?OBJnr=45893,beschermd,6.000084548453,53.344437114756
,,,45894,,Archeologisch,Archeologie,Archeologie,Dongeradeel,Friesland,Aalsum,,,9100 AA,http://monumentenregister.cultureelerfgoed.nl/php/monument_pdf.php?OBJnr=45894,beschermd,6.019758891743,53.341711481265
,,,45895,,Archeologisch,Archeologie,Archeologie,Dongeradeel,Friesland,Wetsens,,,9100 AA,http://monumentenregister.cultureelerfgoed.nl/php/monument_pdf.php?OBJnr=45895,beschermd,6.033207663375,53.346474124178
,,,45896,,Archeologisch,Archeologie,Archeologie,Dongeradeel,Friesland,Morra,,,9100 AA,http://monumentenregister.cultureelerfgoed.nl/php/monument_pdf.php?OBJnr=45896,beschermd,6.092416236878,53.36128189627
,,,45897,,Archeologisch,Archeologie,Archeologie,Dongeradeel,Friesland,Anjum,,,9133 ZA,http://monumentenregister.cultureelerfgoed.nl/php/monument_pdf.php?OBJnr=45897,beschermd,6.102541371802,53.357735759055
,,,45898,,Archeologisch,Archeologie,Archeologie,Dongeradeel,Friesland,Lioessens,,,9134 ZA,http://monumentenregister.cultureelerfgoed.nl/php/monument_pdf.php?OBJnr=45898,beschermd,6.105512336332,53.382760330955
,,,45899,,Archeologisch,Archeologie,Archeologie,Dongeradeel,Friesland,Anjum,,,9133 ZA,http://monumentenregister.cultureelerfgoed.nl/php/monument_pdf.php?OBJnr=45899,beschermd,6.111996778251,53.382299131578
,,,45900,,Archeologisch,Archeologie,Archeologie,Dongeradeel,Friesland,Anjum,,,9133 ZA,http://monumentenregister.cultureelerfgoed.nl/php/monument_pdf.php?OBJnr=45900,beschermd,6.110072333907,53.376883549506
,,,45901,,Archeologisch,Archeologie,Archeologie,Dongeradeel,Friesland,Anjum,,,9133 ZA,http://monumentenregister.cultureelerfgoed.nl/php/monument_pdf.php?OBJnr=45901,beschermd,6.128159184381,53.38009810508
,,,45902,,Archeologisch,Archeologie,Archeologie,Dongeradeel,Friesland,Anjum,,,9133 ZA,http://monumentenregister.cultureelerfgoed.nl/php/monument_pdf.php?OBJnr=45902,beschermd,6.135646170406,53.375972394885
,,,45903,,Archeologisch,Archeologie,Archeologie,Dongeradeel,Friesland,Anjum,,,9133 ZA,http://monumentenregister.cultureelerfgoed.nl/php/monument_pdf.php?OBJnr=45903,beschermd,6.142982200895,53.378729977
,,,45904,,Archeologisch,Archeologie,Archeologie,Dongeradeel,Friesland,Anjum,,,9133 ZA,http://monumentenregister.cultureelerfgoed.nl/php/monument_pdf.php?OBJnr=45904,beschermd,6.137693642436,53.373614449179
,,,45905,,Archeologisch,Archeologie,Archeologie,Dongeradeel,Friesland,Anjum,,,9133 ZA,http://monumentenregister.cultureelerfgoed.nl/php/monument_pdf.php?OBJnr=45905,beschermd,6.131409468489,53.370796129768
,,,45906,,Archeologisch,Archeologie,Archeologie,Dongeradeel,Friesland,Anjum,,,9133 ZA,http://monumentenregister.cultureelerfgoed.nl/php/monument_pdf.php?OBJnr=45906,beschermd,6.132831615089,53.365297231001
,,,45907,,Archeologisch,Archeologie,Archeologie,Dongeradeel,Friesland,Ezumazijl,,,9100 AA,http://monumentenregister.cultureelerfgoed.nl/php/monument_pdf.php?OBJnr=45907,beschermd,6.144455645348,53.361702317424
,,,45908,,Archeologisch,Archeologie,Archeologie,Dongeradeel,Friesland,Ezumazijl,,,9100 AA,http://monumentenregister.cultureelerfgoed.nl/php/monument_pdf.php?OBJnr=45908,beschermd,6.143618529902,53.36107860335
,,,45909,,Archeologisch,Archeologie,Archeologie,Dongeradeel,Friesland,Anjum,,,9130 AA,http://monumentenregister.cultureelerfgoed.nl/php/monument_pdf.php?OBJnr=45909,beschermd,6.136416665093,53.344284905613
,,,45910,,Archeologisch,Archeologie,Archeologie,Dongeradeel,Friesland,Ee,,,9130 AA,http://monumentenregister.cultureelerfgoed.nl/php/monument_pdf.php?OBJnr=45910,beschermd,6.123914085758,53.338422745881
,,,45911,,Archeologisch,Archeologie,Archeologie,Dongeradeel,Friesland,Ee,,,9130 AA,http://monumentenregister.cultureelerfgoed.nl/php/monument_pdf.php?OBJnr=45911,beschermd,6.110864600498,53.338223449723
,,,45912,,Archeologisch,Archeologie,Archeologie,Dongeradeel,Friesland,Engwierum,,,9132 ZA,http://monumentenregister.cultureelerfgoed.nl/php/monument_pdf.php?OBJnr=45912,beschermd,6.131952302066,53.325766519567
,,,45913,,Archeologisch,Archeologie,Archeologie,Dongeradeel,Friesland,Engwierum,,,9132 ZA,http://monumentenregister.cultureelerfgoed.nl/php/monument_pdf.php?OBJnr=45913,beschermd,6.136879690781,53.319131497614
,,,45914,,Archeologisch,Archeologie,Archeologie,Dongeradeel,Friesland,Engwierum,,,9132 ZA,http://monumentenregister.cultureelerfgoed.nl/php/monument_pdf.php?OBJnr=45914,beschermd,6.105366627797,53.328120766949
,,,45915,,Archeologisch,Archeologie,Archeologie,Dongeradeel,Friesland,Ee,,,9130 AA,http://monumentenregister.cultureelerfgoed.nl/php/monument_pdf.php?OBJnr=45915,beschermd,6.096375025496,53.334437045995
,,,45916,,Archeologisch,Archeologie,Archeologie,Dongeradeel,Friesland,Morra,,,9100 AA,http://monumentenregister.cultureelerfgoed.nl/php/monument_pdf.php?OBJnr=45916,beschermd,6.073777804128,53.36613401893
,,,45918,,Archeologisch,Archeologie,Archeologie,Dongeradeel,Friesland,Ee,,,9130 AA,http://monumentenregister.cultureelerfgoed.nl/php/monument_pdf.php?OBJnr=45918,beschermd,6.088749950184,53.32987222607
,,,45919,,Archeologisch,Archeologie,Archeologie,Dongeradeel,Friesland,Ee,,,9130 AA,http://monumentenregister.cultureelerfgoed.nl/php/monument_pdf.php?OBJnr=45919,beschermd,6.085108657317,53.326541828937
,,,45920,,Archeologisch,Archeologie,Archeologie,Dongeradeel,Friesland,Oosternijkerk,,,9137 ZA,http://monumentenregister.cultureelerfgoed.nl/php/monument_pdf.php?OBJnr=45920,beschermd,6.071520213895,53.38853834467
,,,45921,,Archeologisch,Archeologie,Archeologie,Dongeradeel,Friesland,Paesens,,,9136 ZA,http://monumentenregister.cultureelerfgoed.nl/php/monument_pdf.php?OBJnr=45921,beschermd,6.091759638906,53.397325976722
,,,45922,,Archeologisch,Archeologie,Archeologie,Dongeradeel,Friesland,Lioessens,,,9134 ZA,http://monumentenregister.cultureelerfgoed.nl/php/monument_pdf.php?OBJnr=45922,beschermd,6.089690692462,53.385711083136
,,,45923,,Archeologisch,Archeologie,Archeologie,Dongeradeel,Friesland,Paesens,,,9136 ZA,http://monumentenregister.cultureelerfgoed.nl/php/monument_pdf.php?OBJnr=45923,beschermd,6.096900499678,53.395471754689
,,,45924,,Archeologisch,Archeologie,Archeologie,Dongeradeel,Friesland,Engwierum,,,9132 ZA,http://monumentenregister.cultureelerfgoed.nl/php/monument_pdf.php?OBJnr=45924,beschermd,6.125929926695,53.329910074028
,,,45973,,Archeologisch,Archeologie,Archeologie,Loppersum,Groningen,Stedum,,,9920 AA,http://monumentenregister.cultureelerfgoed.nl/php/monument_pdf.php?OBJnr=45973,beschermd,6.696181078734,53.322195415987
,,,45974,,Archeologisch,Archeologie,Archeologie,Loppersum,Groningen,Stedum,,,9920 AA,http://monumentenregister.cultureelerfgoed.nl/php/monument_pdf.php?OBJnr=45974,beschermd,6.688467739337,53.33166980045
,,,45975,,Archeologisch,Archeologie,Archeologie,Loppersum,Groningen,Westeremden,,,9922 ZA,http://monumentenregister.cultureelerfgoed.nl/php/monument_pdf.php?OBJnr=45975,beschermd,6.711702658004,53.343772149701
,,,45976,,Archeologisch,Archeologie,Archeologie,Loppersum,Groningen,Stedum,,,9920 AA,http://monumentenregister.cultureelerfgoed.nl/php/monument_pdf.php?OBJnr=45976,beschermd,6.713801657436,53.368523964552
,,,45977,,Archeologisch,Archeologie,Archeologie,Loppersum,Groningen,Stedum,,,9920 AA,http://monumentenregister.cultureelerfgoed.nl/php/monument_pdf.php?OBJnr=45977,beschermd,6.714672950722,53.367058593664
,,,45978,,Archeologisch,Archeologie,Archeologie,Loppersum,Groningen,Stedum,,,9920 AA,http://monumentenregister.cultureelerfgoed.nl/php/monument_pdf.php?OBJnr=45978,beschermd,6.711700426662,53.333446971235
,,,45979,,Archeologisch,Archeologie,Archeologie,Loppersum,Groningen,Stedum,,,9920 AA,http://monumentenregister.cultureelerfgoed.nl/php/monument_pdf.php?OBJnr=45979,beschermd,6.696404349118,53.312748391463
,,,45980,,Archeologisch,Archeologie,Archeologie,Loppersum,Groningen,Lutjewijtwerd,,,9914 ZA,http://monumentenregister.cultureelerfgoed.nl/php/monument_pdf.php?OBJnr=45980,beschermd,6.696192142371,53.310207577319
,,,45981,,Archeologisch,Archeologie,Archeologie,Loppersum,Groningen,Stedum,,,9920 AA,http://monumentenregister.cultureelerfgoed.nl/php/monument_pdf.php?OBJnr=45981,beschermd,6.689461978037,53.307450011186
,,,45982,,Archeologisch,Archeologie,Archeologie,Loppersum,Groningen,Stedum,,,9920 AA,http://monumentenregister.cultureelerfgoed.nl/php/monument_pdf.php?OBJnr=45982,beschermd,6.66522464891,53.319859643549
,,,45998,,Archeologisch,Archeologie,Archeologie,Coevorden,Drenthe,Schoonoord,,,7848 ZA,http://monumentenregister.cultureelerfgoed.nl/php/monument_pdf.php?OBJnr=45998,beschermd,6.773264739633,52.820191388591
,,,45999,,Archeologisch,Archeologie,Archeologie,Coevorden,Drenthe,Sleen,,,7840 AA,http://monumentenregister.cultureelerfgoed.nl/php/monument_pdf.php?OBJnr=45999,beschermd,6.773397735905,52.813619770671
,,,46000,,Archeologisch,Archeologie,Archeologie,Coevorden,Drenthe,Sleen,,,7840 AA,http://monumentenregister.cultureelerfgoed.nl/php/monument_pdf.php?OBJnr=46000,beschermd,6.786722842335,52.796593877559
,,,46001,,Archeologisch,Archeologie,Archeologie,Coevorden,Drenthe,Sleen,,,7840 AA,http://monumentenregister.cultureelerfgoed.nl/php/monument_pdf.php?OBJnr=46001,beschermd,6.786478744201,52.794987917829
,,,46002,,Archeologisch,Archeologie,Archeologie,Coevorden,Drenthe,Sleen,,,7840 AA,http://monumentenregister.cultureelerfgoed.nl/php/monument_pdf.php?OBJnr=46002,beschermd,6.797307341291,52.785458922546
,,,46018,,Archeologisch,Archeologie,Archeologie,Terschelling,Friesland,Oosterend,,,8880 AA,http://monumentenregister.cultureelerfgoed.nl/php/monument_pdf.php?OBJnr=46018,beschermd,5.377886753638,53.402569087465
,,,46149,,Archeologisch,Archeologie,Archeologie,Winsum,Groningen,Winsum,,,9950 AA,http://monumentenregister.cultureelerfgoed.nl/php/monument_pdf.php?OBJnr=46149,beschermd,6.468759831185,53.329821496829
,,,46150,,Archeologisch,Archeologie,Archeologie,Winsum,Groningen,Winsum,,,9950 AA,http://monumentenregister.cultureelerfgoed.nl/php/monument_pdf.php?OBJnr=46150,beschermd,6.497910731706,53.323436247372
,,,46151,,Archeologisch,Archeologie,Archeologie,Winsum,Groningen,Winsum,,,9950 AA,http://monumentenregister.cultureelerfgoed.nl/php/monument_pdf.php?OBJnr=46151,beschermd,6.507897785324,53.33118830759
,,,46152,,Archeologisch,Archeologie,Archeologie,Winsum,Groningen,Winsum,,,9950 AA,http://monumentenregister.cultureelerfgoed.nl/php/monument_pdf.php?OBJnr=46152,beschermd,6.521894650186,53.31889894269
,,,46153,,Archeologisch,Archeologie,Archeologie,Winsum,Groningen,Winsum,,,9950 AA,http://monumentenregister.cultureelerfgoed.nl/php/monument_pdf.php?OBJnr=46153,beschermd,6.524314530193,53.325867194585
,,,46154,,Archeologisch,Archeologie,Archeologie,Winsum,Groningen,Winsum,,,9950 AA,http://monumentenregister.cultureelerfgoed.nl/php/monument_pdf.php?OBJnr=46154,beschermd,6.518587055728,53.325525854638
,,,46155,,Archeologisch,Archeologie,Archeologie,Winsum,Groningen,Winsum,,,9950 AA,http://monumentenregister.cultureelerfgoed.nl/php/monument_pdf.php?OBJnr=46155,beschermd,6.510451018849,53.345056756402
,,,46156,,Archeologisch,Archeologie,Archeologie,Winsum,Groningen,Winsum,,,9950 AA,http://monumentenregister.cultureelerfgoed.nl/php/monument_pdf.php?OBJnr=46156,beschermd,6.516782852565,53.331132107488
,,,46157,,Archeologisch,Archeologie,Archeologie,Winsum,Groningen,Winsum,,,9950 AA,http://monumentenregister.cultureelerfgoed.nl/php/monument_pdf.php?OBJnr=46157,beschermd,6.503578246449,53.347546958179
,,,46158,,Archeologisch,Archeologie,Archeologie,Winsum,Groningen,Winsum,,,9950 AA,http://monumentenregister.cultureelerfgoed.nl/php/monument_pdf.php?OBJnr=46158,beschermd,6.505279843663,53.349463119437
,,,46159,,Archeologisch,Archeologie,Archeologie,Winsum,Groningen,Maarhuizen,,,9770 AA,http://monumentenregister.cultureelerfgoed.nl/php/monument_pdf.php?OBJnr=46159,beschermd,6.494123674285,53.34135321206
,,,46160,,Archeologisch,Archeologie,Archeologie,Winsum,Groningen,Winsum,,,9950 AA,http://monumentenregister.cultureelerfgoed.nl/php/monument_pdf.php?OBJnr=46160,beschermd,6.558157215129,53.3329288145
,,,46190,,Archeologisch,Archeologie,Archeologie,Tynaarlo,Drenthe,Zuidlaren,,,9470 AA,http://monumentenregister.cultureelerfgoed.nl/php/monument_pdf.php?OBJnr=46190,beschermd,6.692118517275,53.076814604895
,,,46193,,Archeologisch,Archeologie,Archeologie,Loppersum,Groningen,Leermens,,,9915 ZA,http://monumentenregister.cultureelerfgoed.nl/php/monument_pdf.php?OBJnr=46193,beschermd,6.798162047787,53.345969838042
,,,46194,,Archeologisch,Archeologie,Archeologie,Loppersum,Groningen,'t Zandt,,,9915 ZA,http://monumentenregister.cultureelerfgoed.nl/php/monument_pdf.php?OBJnr=46194,beschermd,6.786110928862,53.342039823598
,,,46195,,Archeologisch,Archeologie,Archeologie,Loppersum,Groningen,Eenum,,,9914 ZA,http://monumentenregister.cultureelerfgoed.nl/php/monument_pdf.php?OBJnr=46195,beschermd,6.779442499585,53.339205643965
,,,46196,,Archeologisch,Archeologie,Archeologie,Loppersum,Groningen,Oosterwijtwerd,,,9914 ZA,http://monumentenregister.cultureelerfgoed.nl/php/monument_pdf.php?OBJnr=46196,beschermd,6.814775483646,53.338863190903
,,,46197,,Archeologisch,Archeologie,Archeologie,Loppersum,Groningen,'t Zandt,,,9915 ZA,http://monumentenregister.cultureelerfgoed.nl/php/monument_pdf.php?OBJnr=46197,beschermd,6.791195518171,53.371338895267
,,,46198,,Archeologisch,Archeologie,Archeologie,Loppersum,Groningen,Leermens,,,9914 ZA,http://monumentenregister.cultureelerfgoed.nl/php/monument_pdf.php?OBJnr=46198,beschermd,6.787337891793,53.353914482344
,,,46199,,Archeologisch,Archeologie,Archeologie,Loppersum,Groningen,Leermens,,,9914 ZA,http://monumentenregister.cultureelerfgoed.nl/php/monument_pdf.php?OBJnr=46199,beschermd,6.78554550116,53.362544226386
,,,46205,,Archeologisch,Archeologie,Archeologie,Harlingen,Friesland,Wijnaldum,,,8860 AA,http://monumentenregister.cultureelerfgoed.nl/php/monument_pdf.php?OBJnr=46205,beschermd,5.461436587679,53.19516584331
,,,46206,,Archeologisch,Archeologie,Archeologie,Franekeradeel,Friesland,Sexbierum,,,8855 ZA,http://monumentenregister.cultureelerfgoed.nl/php/monument_pdf.php?OBJnr=46206,beschermd,5.485310821286,53.218879570343
,,,46207,,Archeologisch,Archeologie,Archeologie,Franekeradeel,Friesland,Pietersbierum,,,8800 AA,http://monumentenregister.cultureelerfgoed.nl/php/monument_pdf.php?OBJnr=46207,beschermd,5.476441592598,53.215714607316
,,,46208,,Archeologisch,Archeologie,Archeologie,Franekeradeel,Friesland,Tzummarum,,,8850 AA,http://monumentenregister.cultureelerfgoed.nl/php/monument_pdf.php?OBJnr=46208,beschermd,5.544450670118,53.236796609768
,,,46209,,Archeologisch,Archeologie,Archeologie,Franekeradeel,Friesland,Tzummarum,,,8850 AA,http://monumentenregister.cultureelerfgoed.nl/php/monument_pdf.php?OBJnr=46209,beschermd,5.541552021573,53.242910506938
,,,46210,,Archeologisch,Archeologie,Archeologie,Franekeradeel,Friesland,Firdgum,,,8800 AA,http://monumentenregister.cultureelerfgoed.nl/php/monument_pdf.php?OBJnr=46210,beschermd,5.559608108789,53.248232270248
,,,46211,,Archeologisch,Archeologie,Archeologie,Franekeradeel,Friesland,Sexbierum,,,8855 ZA,http://monumentenregister.cultureelerfgoed.nl/php/monument_pdf.php?OBJnr=46211,beschermd,5.475525023,53.221358206523
,,,46219,,Archeologisch,Archeologie,Archeologie,Tynaarlo,Drenthe,Zuidlaren,,,9470 AA,http://monumentenregister.cultureelerfgoed.nl/php/monument_pdf.php?OBJnr=46219,beschermd,6.694935113606,53.073216030894
,,,46226,,Archeologisch,Archeologie,Archeologie,Dongeradeel,Friesland,Raard,,,9100 AA,http://monumentenregister.cultureelerfgoed.nl/php/monument_pdf.php?OBJnr=46226,beschermd,5.934822624174,53.326098448207
,,,46227,,Archeologisch,Archeologie,Archeologie,Dongeradeel,Friesland,Raard,,,9100 AA,http://monumentenregister.cultureelerfgoed.nl/php/monument_pdf.php?OBJnr=46227,beschermd,5.944040532943,53.326316674119
,,,46228,,Archeologisch,Archeologie,Archeologie,Leeuwarden,Friesland,Leeuwarden,,,8900 AA,http://monumentenregister.cultureelerfgoed.nl/php/monument_pdf.php?OBJnr=46228,beschermd,5.805881522061,53.17875070326
,,,46229,,Archeologisch,Archeologie,Archeologie,Ferwerderadiel,Friesland,Hallum,,,9074 ZA,http://monumentenregister.cultureelerfgoed.nl/php/monument_pdf.php?OBJnr=46229,beschermd,5.782348820173,53.322230740555
,,,46230,,Archeologisch,Archeologie,Archeologie,Dongeradeel,Friesland,Holwerd,,,9100 AA,http://monumentenregister.cultureelerfgoed.nl/php/monument_pdf.php?OBJnr=46230,beschermd,5.925704483868,53.366268108827
,,,47109,,Archeologisch,Archeologie,Archeologie,Eemsmond,Groningen,Oldorp,,,9979 ZG,http://monumentenregister.cultureelerfgoed.nl/php/monument_pdf.php?OBJnr=47109,beschermd,6.653221937131,53.402191402201
,,,47145,,Archeologisch,Archeologie,Archeologie,Eemsmond,Groningen,Usquert,,,9988 ZA,http://monumentenregister.cultureelerfgoed.nl/php/monument_pdf.php?OBJnr=47145,beschermd,6.613469677313,53.39914340525
,,,47146,,Archeologisch,Archeologie,Archeologie,Eemsmond,Groningen,Usquert,,,9988 ZA,http://monumentenregister.cultureelerfgoed.nl/php/monument_pdf.php?OBJnr=47146,beschermd,6.623815642414,53.405480445778
,,,47147,,Archeologisch,Archeologie,Archeologie,Eemsmond,Groningen,Usquert,,,9988 ZA,http://monumentenregister.cultureelerfgoed.nl/php/monument_pdf.php?OBJnr=47147,beschermd,6.626205340147,53.405437899013
,,,47169,,Archeologisch,Archeologie,Archeologie,Eemsmond,Groningen,Warffum,,,9989 ZA,http://monumentenregister.cultureelerfgoed.nl/php/monument_pdf.php?OBJnr=47169,beschermd,6.559527194634,53.391530772836
,,,47170,,Archeologisch,Archeologie,Archeologie,Eemsmond,Groningen,Warffum,,,9989 ZA,http://monumentenregister.cultureelerfgoed.nl/php/monument_pdf.php?OBJnr=47170,beschermd,6.573200106883,53.391297950821
,,,47171,,Archeologisch,Archeologie,Archeologie,Eemsmond,Groningen,Warffum,,,9989 ZA,http://monumentenregister.cultureelerfgoed.nl/php/monument_pdf.php?OBJnr=47171,beschermd,6.570130065544,53.384067578613
,,,47172,,Archeologisch,Archeologie,Archeologie,Eemsmond,Groningen,Warffum,,,9989 ZA,http://monumentenregister.cultureelerfgoed.nl/php/monument_pdf.php?OBJnr=47172,beschermd,6.562895432339,53.371773889532
,,,47173,,Archeologisch,Archeologie,Archeologie,Eemsmond,Groningen,Warffum,,Noordpolder 6,9989 TE,http://monumentenregister.cultureelerfgoed.nl/php/monument_pdf.php?OBJnr=47173,beschermd,6.556067235991,53.416320327249
,,,47512,,Archeologisch,Archeologie,Archeologie,Dongeradeel,Friesland,Dokkum,,,9100 AA,http://monumentenregister.cultureelerfgoed.nl/php/monument_pdf.php?OBJnr=47512,beschermd,5.982355206517,53.330535924071
,,,47513,,Archeologisch,Archeologie,Archeologie,Dongeradeel,Friesland,Dokkum,,,9100 AA,http://monumentenregister.cultureelerfgoed.nl/php/monument_pdf.php?OBJnr=47513,beschermd,5.980729727635,53.31496321308
,,,47514,,Archeologisch,Archeologie,Archeologie,Dongeradeel,Friesland,Dokkum,,,9100 AA,http://monumentenregister.cultureelerfgoed.nl/php/monument_pdf.php?OBJnr=47514,beschermd,5.997974866687,53.326962242954
,,,47526,,Archeologisch,Archeologie,Archeologie,Delfzijl,Groningen,Bierum,,,9906 ZA,http://monumentenregister.cultureelerfgoed.nl/php/monument_pdf.php?OBJnr=47526,beschermd,6.879542773328,53.371191927906
,,,341029,,Archeologisch,Archeologie,Archeologie,Coevorden,Drenthe,Oosterhesselen,,,7860 AA,http://monumentenregister.cultureelerfgoed.nl/php/monument_pdf.php?OBJnr=341029,beschermd,6.729756316445,52.742522502654
,,,341036,,Archeologisch,Archeologie,Archeologie,Coevorden,Drenthe,Gees,,,7860 AA,http://monumentenregister.cultureelerfgoed.nl/php/monument_pdf.php?OBJnr=341036,beschermd,6.654388053004,52.742953137027
,,,341350,,Archeologisch,Archeologie,Archeologie,Coevorden,Drenthe,Meppen,,,7854 ZA,http://monumentenregister.cultureelerfgoed.nl/php/monument_pdf.php?OBJnr=341350,beschermd,6.70286739387,52.782674597971
,,,352971,,Archeologisch,Archeologie,Archeologie,Winsum,Groningen,Adorp,,,9774 ZA,http://monumentenregister.cultureelerfgoed.nl/php/monument_pdf.php?OBJnr=352971,beschermd,6.530860328675,53.263153921397
,,,354375,,Archeologisch,Archeologie,Archeologie,Menameradiel,Friesland,Engelum,,,9038 ZA,http://monumentenregister.cultureelerfgoed.nl/php/monument_pdf.php?OBJnr=354375,beschermd,5.726016887342,53.225324067558
,,,357083,,Archeologisch,Archeologie,Archeologie,Zuidhorn,Groningen,Aduard,,,9830 AA,http://monumentenregister.cultureelerfgoed.nl/php/monument_pdf.php?OBJnr=357083,beschermd,6.460253022266,53.257048077466
,,,420185,,Archeologisch,Archeologie,Archeologie,Aa en Hunze,Drenthe,Rolde,,,9450 AA,http://monumentenregister.cultureelerfgoed.nl/php/monument_pdf.php?OBJnr=420185,beschermd,6.649133383553,52.98983162521
,,,421079,Noordlaren,Archeologisch,Archeologie,Archeologie,Haren,Groningen,Noordlaren,,,9479 ZA,http://monumentenregister.cultureelerfgoed.nl/php/monument_pdf.php?OBJnr=421079,beschermd,6.658782482407,53.115628213827
,,,421080,Loon,Archeologisch,Archeologie,Archeologie,Assen,Drenthe,Loon,,,9400 AA,http://monumentenregister.cultureelerfgoed.nl/php/monument_pdf.php?OBJnr=421080,beschermd,6.613206904467,53.0230172355
,,,421089,Diever,Archeologisch,Archeologie,Archeologie,Westerveld,Drenthe,Diever,,,7980 AA,http://monumentenregister.cultureelerfgoed.nl/php/monument_pdf.php?OBJnr=421089,beschermd,6.331099381884,52.859032107682
,,,421090,Borger,Archeologisch,Archeologie,Archeologie,Borger-Odoorn,Drenthe,Borger,,,9530 AA,http://monumentenregister.cultureelerfgoed.nl/php/monument_pdf.php?OBJnr=421090,beschermd,6.798403534412,52.930265203218
,,,452870,Odoorn,Archeologisch,Archeologie,Archeologie,Borger-Odoorn,Drenthe,Odoorn,,,7873 ZA,http://monumentenregister.cultureelerfgoed.nl/php/monument_pdf.php?OBJnr=452870,beschermd,6.870517825234,52.835118199479
,,,464135,,Archeologisch,Archeologie,Archeologie,Tynaarlo,Drenthe,Zeyen,,,9480 AA,http://monumentenregister.cultureelerfgoed.nl/php/monument_pdf.php?OBJnr=464135,beschermd,6.531075895618,53.061872229097
,,,464140,,Archeologisch,Archeologie,Archeologie,Aa en Hunze,Drenthe,Balloo,,,9444 ZA,http://monumentenregister.cultureelerfgoed.nl/php/monument_pdf.php?OBJnr=464140,beschermd,6.618954181381,53.00070625354
,,,464145,,Archeologisch,Archeologie,Archeologie,Borger-Odoorn,Drenthe,Drouwen,,,9520 AA,http://monumentenregister.cultureelerfgoed.nl/php/monument_pdf.php?OBJnr=464145,beschermd,6.785703758497,52.952128407612
,,,464156,,Archeologisch,Archeologie,Archeologie,Borger-Odoorn,Drenthe,Bronneger,,,9520 AA,http://monumentenregister.cultureelerfgoed.nl/php/monument_pdf.php?OBJnr=464156,beschermd,6.800359743054,52.944271609921
,,,464166,,Archeologisch,Archeologie,Archeologie,Borger-Odoorn,Drenthe,Borger,,,9530 AA,http://monumentenregister.cultureelerfgoed.nl/php/monument_pdf.php?OBJnr=464166,beschermd,6.811014131049,52.926098061483
,,,467460,,Archeologisch,Archeologie,Archeologie,Noordenveld,Drenthe,Roden,,,9300 AA,http://monumentenregister.cultureelerfgoed.nl/php/monument_pdf.php?OBJnr=467460,beschermd,6.410493927176,53.104859362029
,,,467465,,Archeologisch,Archeologie,Archeologie,Noordenveld,Drenthe,Norg,,,9330 AA,http://monumentenregister.cultureelerfgoed.nl/php/monument_pdf.php?OBJnr=467465,beschermd,6.445804533331,53.055710171842
,,,467470,,Archeologisch,Archeologie,Archeologie,Tynaarlo,Drenthe,Tynaarlo,,,9482 ZA,http://monumentenregister.cultureelerfgoed.nl/php/monument_pdf.php?OBJnr=467470,beschermd,6.629638692274,53.074882183809
,,,467478,,Archeologisch,Archeologie,Archeologie,Borger-Odoorn,Drenthe,Bronneger,,,9520 AA,http://monumentenregister.cultureelerfgoed.nl/php/monument_pdf.php?OBJnr=467478,beschermd,6.802525619357,52.944991928948
,,,467484,,Archeologisch,Archeologie,Archeologie,Borger-Odoorn,Drenthe,Drouwen,,,9520 AA,http://monumentenregister.cultureelerfgoed.nl/php/monument_pdf.php?OBJnr=467484,beschermd,6.774557482938,52.94323496577
,,,467493,,Archeologisch,Archeologie,Archeologie,Borger-Odoorn,Drenthe,Odoorn,,,7873 ZA,http://monumentenregister.cultureelerfgoed.nl/php/monument_pdf.php?OBJnr=467493,beschermd,6.845882534397,52.891649810137
,,,507384,,Archeologisch,Archeologie,Archeologie,Delfzijl,Groningen,Delfzijl,,,9905 ZG,http://monumentenregister.cultureelerfgoed.nl/php/monument_pdf.php?OBJnr=1001156,beschermd,6.96419025803,53.309829226507
,,,507523,,Archeologisch,Archeologie,Archeologie,Aa en Hunze,Drenthe,Gieten,,,9468 ZG,http://monumentenregister.cultureelerfgoed.nl/php/monument_pdf.php?OBJnr=1001281,beschermd,6.75553035446,53.016251977828
,,,507524,,Archeologisch,Archeologie,Archeologie,Aa en Hunze,Drenthe,Gieten,,,9460 AA,http://monumentenregister.cultureelerfgoed.nl/php/monument_pdf.php?OBJnr=1001282,beschermd,6.75824277131,53.014836872589
,,,508040,,Archeologisch,Archeologie,Archeologie,Westerveld,Drenthe,Havelte,,,7970 AA,http://monumentenregister.cultureelerfgoed.nl/php/monument_pdf.php?OBJnr=1001735,beschermd,6.218039980644,52.790772041514
,,,508081,,Archeologisch,Archeologie,Archeologie,Oldambt,Groningen,Midwolda,,,9680 AA,http://monumentenregister.cultureelerfgoed.nl/php/monument_pdf.php?OBJnr=1001772,beschermd,6.993284915673,53.210730703562
,,,514804,,Archeologisch,Archeologie,Archeologie,Franekeradeel,Friesland,Dongjum,,,8800 AA,http://monumentenregister.cultureelerfgoed.nl/php/monument_pdf.php?OBJnr=1007723,beschermd,5.522229453366,53.204754293193
,,,514820,,Archeologisch,Archeologie,Archeologie,Franekeradeel,Friesland,Dongjum,,,8800 AA,http://monumentenregister.cultureelerfgoed.nl/php/monument_pdf.php?OBJnr=1007740,beschermd,5.525795900942,53.2061789303
,,,514821,,Archeologisch,Archeologie,Archeologie,Franekeradeel,Friesland,Dongjum,,,8800 AA,http://monumentenregister.cultureelerfgoed.nl/php/monument_pdf.php?OBJnr=1007741,beschermd,5.529838643344,53.206731293555
,,,514822,,Archeologisch,Archeologie,Archeologie,Franekeradeel,Friesland,Dongjum,,,8800 AA,http://monumentenregister.cultureelerfgoed.nl/php/monument_pdf.php?OBJnr=1007742,beschermd,5.533268705279,53.207535865093
,,,514823,,Archeologisch,Archeologie,Archeologie,Franekeradeel,Friesland,Dongjum,,,8800 AA,http://monumentenregister.cultureelerfgoed.nl/php/monument_pdf.php?OBJnr=1007743,beschermd,5.54023067299,53.208210083425
,,,522122,,Archeologisch,Archeologie,Archeologie,Delfzijl,Groningen,Borgsweer,,,9930 AA,http://monumentenregister.cultureelerfgoed.nl/php/monument_pdf.php?OBJnr=1014109,beschermd,7.013701440235,53.298160308376
,,,522123,,Archeologisch,Archeologie,Archeologie,S�dwest-Frysl�n,Friesland,Arum,,,8822 ZJ,http://monumentenregister.cultureelerfgoed.nl/php/monument_pdf.php?OBJnr=1014110,beschermd,5.477157444833,53.128202556619
,,,522124,,Archeologisch,Archeologie,Archeologie,Zuidhorn,Groningen,Selwerd,,,9800 AA,http://monumentenregister.cultureelerfgoed.nl/php/monument_pdf.php?OBJnr=1014111,beschermd,6.405267370568,53.295582606688
,,,522134,,Archeologisch,Archeologie,Archeologie,Winsum,Groningen,Adorp,,,9774 ZA,http://monumentenregister.cultureelerfgoed.nl/php/monument_pdf.php?OBJnr=1014121,beschermd,6.45877739643,53.286948965459
,,,522135,,Archeologisch,Archeologie,Archeologie,Winsum,Groningen,Ezinge,,,9890 NA,http://monumentenregister.cultureelerfgoed.nl/php/monument_pdf.php?OBJnr=1014122,beschermd,6.458795822471,53.296141502595
,,,522136,,Archeologisch,Archeologie,Archeologie,Winsum,Groningen,Ezinge,,,9890 NA,http://monumentenregister.cultureelerfgoed.nl/php/monument_pdf.php?OBJnr=1014123,beschermd,6.446437856426,53.299234437268
,,,522137,,Archeologisch,Archeologie,Archeologie,Winsum,Groningen,Ezinge,,,9890 NA,http://monumentenregister.cultureelerfgoed.nl/php/monument_pdf.php?OBJnr=1014124,beschermd,6.439807802969,53.305987247045
,,,522138,,Archeologisch,Archeologie,Archeologie,Zuidhorn,Groningen,Kommerzijl,,,9880 NA,http://monumentenregister.cultureelerfgoed.nl/php/monument_pdf.php?OBJnr=1014125,beschermd,6.348947079499,53.287447152739
,,,522139,,Archeologisch,Archeologie,Archeologie,Zuidhorn,Groningen,Niehove,,,9800 AA,http://monumentenregister.cultureelerfgoed.nl/php/monument_pdf.php?OBJnr=1014126,beschermd,6.349383150652,53.299601556422
,,,522140,,Archeologisch,Archeologie,Archeologie,Winsum,Groningen,Adorp,,,9774 ZA,http://monumentenregister.cultureelerfgoed.nl/php/monument_pdf.php?OBJnr=1014127,beschermd,6.458214032937,53.286001469554
,,,522141,,Archeologisch,Archeologie,Archeologie,Winsum,Groningen,Ezinge,,,9890 NA,http://monumentenregister.cultureelerfgoed.nl/php/monument_pdf.php?OBJnr=1014128,beschermd,6.445338508417,53.29600018265
,,,522142,,Archeologisch,Archeologie,Archeologie,Winsum,Groningen,Ezinge,,,9890 NA,http://monumentenregister.cultureelerfgoed.nl/php/monument_pdf.php?OBJnr=1014129,beschermd,6.446879080134,53.28789021319
,,,522143,,Archeologisch,Archeologie,Archeologie,Zuidhorn,Groningen,Niehove,,,9800 AA,http://monumentenregister.cultureelerfgoed.nl/php/monument_pdf.php?OBJnr=1014130,beschermd,6.382274955257,53.281936898611
,,,522144,,Archeologisch,Archeologie,Archeologie,Zuidhorn,Groningen,Oldehove,,,9800 AA,http://monumentenregister.cultureelerfgoed.nl/php/monument_pdf.php?OBJnr=1014131,beschermd,6.382043513961,53.303109648818
,,,522145,,Archeologisch,Archeologie,Archeologie,Winsum,Groningen,Garnwerd,,,9893 ZA,http://monumentenregister.cultureelerfgoed.nl/php/monument_pdf.php?OBJnr=1014132,beschermd,6.497920055842,53.280123428199
,,,522156,,Archeologisch,Archeologie,Archeologie,Zuidhorn,Groningen,Oldehove,,,9800 AA,http://monumentenregister.cultureelerfgoed.nl/php/monument_pdf.php?OBJnr=1014142,beschermd,6.368931044913,53.306991560391
,,,522157,,Archeologisch,Archeologie,Archeologie,Zuidhorn,Groningen,Niehove,,,9800 AA,http://monumentenregister.cultureelerfgoed.nl/php/monument_pdf.php?OBJnr=1014143,beschermd,6.366921358232,53.289853905752
,,,522161,,Archeologisch,Archeologie,Archeologie,Aa en Hunze,Drenthe,Anloo,,,9444 ZG,http://monumentenregister.cultureelerfgoed.nl/php/monument_pdf.php?OBJnr=1014146,beschermd,6.694374183911,53.0605324918
,,,522164,,Archeologisch,Archeologie,Archeologie,Winsum,Groningen,Ezinge,,,9890 NA,http://monumentenregister.cultureelerfgoed.nl/php/monument_pdf.php?OBJnr=1014149,beschermd,6.440020219452,53.310999544383
,,,526880,,Archeologisch,Archeologie,Archeologie,Midden-Drenthe,Drenthe,Orvelte,Bij,Schapendrift 1,9441 PJ,http://monumentenregister.cultureelerfgoed.nl/php/monument_pdf.php?OBJnr=1018355,beschermd,6.656165569048,52.848853612939
,,,527157,,Archeologisch,Archeologie,Archeologie,Borger-Odoorn,Drenthe,Exloo,,,7875 ZG,http://monumentenregister.cultureelerfgoed.nl/php/monument_pdf.php?OBJnr=1018604,beschermd,6.870998494021,52.867648317383
,,,527159,,Archeologisch,Archeologie,Archeologie,Eemsmond,Groningen,Rottum,,,9995 ZA,http://monumentenregister.cultureelerfgoed.nl/php/monument_pdf.php?OBJnr=1018606,beschermd,6.620818195082,53.383297976882
,,,527270,,Archeologisch,Archeologie,Archeologie,Noordenveld,Drenthe,Zuidvelde,,Asserstraat 71,9335 TA,http://monumentenregister.cultureelerfgoed.nl/php/monument_pdf.php?OBJnr=1018707,beschermd,6.454261800683,53.048427716789
,,,527274,,Archeologisch,Archeologie,Archeologie,Winsum,Groningen,Tinallinge,,,9770 AA,http://monumentenregister.cultureelerfgoed.nl/php/monument_pdf.php?OBJnr=1018711,beschermd,6.534879122656,53.356220260239
,,,528804,,Archeologisch,Archeologie,Archeologie,De Wolden,Drenthe,Rheebruggen,,,7920 NB,http://monumentenregister.cultureelerfgoed.nl/php/monument_pdf.php?OBJnr=1020101,beschermd,6.296846404477,52.781353021042
,,,528805,,Archeologisch,Archeologie,Archeologie,Westerveld,Drenthe,Wittelte,,,7970 AA,http://monumentenregister.cultureelerfgoed.nl/php/monument_pdf.php?OBJnr=1020102,beschermd,6.309218492626,52.829024677413
,,,529965,,Archeologisch,Archeologie,Archeologie,Noordenveld,Drenthe,Peize,,,9320 AA,http://monumentenregister.cultureelerfgoed.nl/php/monument_pdf.php?OBJnr=1021165,beschermd,6.511186483484,53.176963303457
,,,531043,Wierde Late IJzertijd-Romeinse tijd,Archeologisch,Archeologie,Archeologie,Zuidhorn,Groningen,Aduard,,,9800 AA,http://monumentenregister.cultureelerfgoed.nl/php/monument_pdf.php?OBJnr=1022155,beschermd,6.460240719779,53.257156020961
,,,531047,terp,Archeologisch,Archeologie,Archeologie,Dantumadiel,Friesland,Rinsumageast,,,9104 ZG,http://monumentenregister.cultureelerfgoed.nl/php/monument_pdf.php?OBJnr=1022159,voorbeschermd,5.927126696887,53.307200988246